,museum,address,longitude,latitude,ID,mus_point,station_id,name,region_id,capacity,lat,lon,station_status___1_,stat_point,closest,approx_distance_miles
0,African American Civil War Memorial Museum,1925 VERMONT AVENUE NW,-77.02536383,38.91643609,310615,POINT(-77.02536383 38.91643609),43,10th & U St NW,42.0,15,38.9172,-77.0259,active,POINT(-77.0259 38.9172),True,0.06015156780018512
1,African American Civil War Memorial Museum,1925 VERMONT AVENUE NW,-77.02536383,38.91643609,310615,POINT(-77.02536383 38.91643609),242,12th & U St NW,42.0,31,38.916787,-77.028139,active,POINT(-77.028139 38.916787),True,0.1511797173647359
2,African American Civil War Memorial Museum,1925 VERMONT AVENUE NW,-77.02536383,38.91643609,310615,POINT(-77.02536383 38.91643609),47,7th & T St NW,42.0,15,38.9155,-77.0222,active,POINT(-77.0222 38.9155),True,0.18200678451670813
3,African American Civil War Memorial Museum,1925 VERMONT AVENUE NW,-77.02536383,38.91643609,310615,POINT(-77.02536383 38.91643609),367,11th & S St NW,42.0,23,38.913761,-77.027025,active,POINT(-77.027025 38.913761),True,0.20531898107185756
4,African American Civil War Memorial Museum,1925 VERMONT AVENUE NW,-77.02536383,38.91643609,310615,POINT(-77.02536383 38.91643609),587,7th & S St NW,42.0,19,38.914204318729794,-77.0221745967865,active,POINT(-77.0221745967865 38.9142043187298),True,0.2306440450587092
5,America's Islamic Heritage Museum,2315 MARTIN LUTHER KING JR AVENUE SE,-76.99188292,38.86324023,147815,POINT(-76.99188292 38.86324023),240,Pleasant St & MLK Ave SE,42.0,11,38.863896999999994,-76.990037,active,POINT(-76.990037 38.863897),True,0.10920869311355064
6,America's Islamic Heritage Museum,2315 MARTIN LUTHER KING JR AVENUE SE,-76.99188292,38.86324023,147815,POINT(-76.99188292 38.86324023),39,Anacostia Metro,42.0,11,38.862669,-76.994637,active,POINT(-76.994637 38.862669),True,0.1533675876186841
7,America's Islamic Heritage Museum,2315 MARTIN LUTHER KING JR AVENUE SE,-76.99188292,38.86324023,147815,POINT(-76.99188292 38.86324023),40,Good Hope Rd & MLK Ave SE,42.0,11,38.867373,-76.988039,active,POINT(-76.988039 38.867373),True,0.3526389966698967
8,America's Islamic Heritage Museum,2315 MARTIN LUTHER KING JR AVENUE SE,-76.99188292,38.86324023,147815,POINT(-76.99188292 38.86324023),179,Good Hope Rd & 14th St SE,42.0,15,38.866611,-76.985238,active,POINT(-76.985238 38.866611),True,0.4267480961146155
9,America's Islamic Heritage Museum,2315 MARTIN LUTHER KING JR AVENUE SE,-76.99188292,38.86324023,147815,POINT(-76.99188292 38.86324023),531,Stanton Square SE,42.0,19,38.855004,-76.984512,active,POINT(-76.984512 38.855004),True,0.6937695630529055
10,American Poetry Museum,716 MONROE STREET NE,-76.99500622,38.93283333,309744,POINT(-76.99500622 38.93283333),93,10th & Monroe St NE,42.0,15,38.932514000000005,-76.992889,active,POINT(-76.992889 38.932514),True,0.11593768999695793
11,American Poetry Museum,716 MONROE STREET NE,-76.99500622,38.93283333,309744,POINT(-76.99500622 38.93283333),30,John McCormack Dr & Michigan Ave NE,42.0,11,38.9346,-76.9955,active,POINT(-76.9955 38.9346),True,0.12494362883235174
12,American Poetry Museum,716 MONROE STREET NE,-76.99500622,38.93283333,309744,POINT(-76.99500622 38.93283333),73,12th & Newton St NE,42.0,11,38.933668,-76.991016,active,POINT(-76.991016 38.933668),True,0.22212575500555434
13,American Poetry Museum,716 MONROE STREET NE,-76.99500622,38.93283333,309744,POINT(-76.99500622 38.93283333),237,12th & Irving St NE,42.0,15,38.928644,-76.990955,active,POINT(-76.990955 38.928644),True,0.3622894531235516
14,American Poetry Museum,716 MONROE STREET NE,-76.99500622,38.93283333,309744,POINT(-76.99500622 38.93283333),254,Hamlin & 7th St NE,42.0,15,38.927496999999995,-76.997194,active,POINT(-76.997194 38.927497),True,0.38708544740450335
15,American Red Cross Museum,430 17TH STREET NW,-77.04020477,38.89481909,300987,POINT(-77.04020477 38.89481909),393,18th & C St NW,42.0,19,38.893511,-77.04154399999999,active,POINT(-77.041544 38.893511),True,0.1155896625637168
16,American Red Cross Museum,430 17TH STREET NW,-77.04020477,38.89481909,300987,POINT(-77.04020477 38.89481909),41,19th & E Street NW,42.0,11,38.8952,-77.0436,active,POINT(-77.0436 38.8952),True,0.18450595929740196
17,American Red Cross Museum,430 17TH STREET NW,-77.04020477,38.89481909,300987,POINT(-77.04020477 38.89481909),349,17th & G St NW,42.0,31,38.89829964921176,-77.03973233699799,active,POINT(-77.039732336998 38.8982996492118),True,0.2418736325779417
18,American Red Cross Museum,430 17TH STREET NW,-77.04020477,38.89481909,300987,POINT(-77.04020477 38.89481909),109,19th St & Constitution Ave NW,42.0,35,38.8923,-77.0436,active,POINT(-77.0436 38.8923),True,0.2523055913686001
19,American Red Cross Museum,430 17TH STREET NW,-77.04020477,38.89481909,300987,POINT(-77.04020477 38.89481909),206,20th St & Virginia Ave NW,42.0,15,38.894721999999994,-77.045128,active,POINT(-77.045128 38.894722),True,0.26489050586272805
20,American University Museum at the Katzen Arts Center,3500 NEBRASKA AVENUE NW,-77.086851,38.939091999999995,223996,POINT(-77.086851 38.939092),63,Ward Circle / American University,42.0,15,38.938736,-77.087171,active,POINT(-77.087171 38.938736),True,0.030019369717967495
21,American University Museum at the Katzen Arts Center,3500 NEBRASKA AVENUE NW,-77.086851,38.939091999999995,223996,POINT(-77.086851 38.939092),487,American University East Campus,42.0,19,38.936298,-77.087128,active,POINT(-77.087128 38.936298),True,0.19366159165550464
22,American University Museum at the Katzen Arts Center,3500 NEBRASKA AVENUE NW,-77.086851,38.939091999999995,223996,POINT(-77.086851 38.939092),376,Yuma St & Tenley Circle NW,42.0,19,38.946182,-77.08059,active,POINT(-77.08059 38.946182),True,0.5944174301898958
23,American University Museum at the Katzen Arts Center,3500 NEBRASKA AVENUE NW,-77.086851,38.939091999999995,223996,POINT(-77.086851 38.939092),208,39th & Veazey St NW,42.0,15,38.943837,-77.077078,active,POINT(-77.077078 38.943837),True,0.6192619440618524
24,American University Museum at the Katzen Arts Center,3500 NEBRASKA AVENUE NW,-77.086851,38.939091999999995,223996,POINT(-77.086851 38.939092),80,Tenleytown / Wisconsin Ave & Albemarle St NW,42.0,15,38.947607,-77.079382,active,POINT(-77.079382 38.947607),True,0.7123558380374218
25,Anacostia Community Museum,1901 FORT PLACE SE,-76.9767824,38.85657522,286524,POINT(-76.9767824 38.85657522),607,Fort Stanton Rec Center,42.0,19,38.857369037587524,-76.97768801437631,active,POINT(-76.9776880143763 38.8573690375875),True,0.07338089459793423
26,Anacostia Community Museum,1901 FORT PLACE SE,-76.9767824,38.85657522,286524,POINT(-76.9767824 38.85657522),531,Stanton Square SE,42.0,19,38.855004,-76.984512,active,POINT(-76.984512 38.855004),True,0.4299181611331164
27,Anacostia Community Museum,1901 FORT PLACE SE,-76.9767824,38.85657522,286524,POINT(-76.9767824 38.85657522),34,Good Hope & Naylor Rd SE,42.0,11,38.86005647007575,-76.96783974766731,active,POINT(-76.9678397476673 38.8600564700757),True,0.5380303697876906
28,Anacostia Community Museum,1901 FORT PLACE SE,-76.9767824,38.85657522,286524,POINT(-76.9767824 38.85657522),66,Anacostia Library,42.0,11,38.865784000000005,-76.9784,active,POINT(-76.9784 38.865784),True,0.642327790030249
29,Anacostia Community Museum,1901 FORT PLACE SE,-76.9767824,38.85657522,286524,POINT(-76.9767824 38.85657522),495,19th & Savannah St SE,42.0,11,38.84623,-76.97703,active,POINT(-76.97703 38.84623),True,0.7150637591944154
30,Anderson House,2118 MASSACHUSETTS AVENUE NW,-77.04770288,38.91071637,293220,POINT(-77.04770288 38.91071637),394,22nd & P ST NW,42.0,19,38.909394,-77.048728,active,POINT(-77.048728 38.909394),True,0.10672587495588627
31,Anderson House,2118 MASSACHUSETTS AVENUE NW,-77.04770288,38.91071637,293220,POINT(-77.04770288 38.91071637),485,Connecticut Ave & R St NW,42.0,19,38.912644,-77.04564,active,POINT(-77.04564 38.912644),True,0.17335404300005133
32,Anderson House,2118 MASSACHUSETTS AVENUE NW,-77.04770288,38.91071637,293220,POINT(-77.04770288 38.91071637),51,Massachusetts Ave & Dupont Circle NW,42.0,45,38.9101,-77.0444,active,POINT(-77.0444 38.9101),True,0.1826491530801564
33,Anderson House,2118 MASSACHUSETTS AVENUE NW,-77.04770288,38.91071637,293220,POINT(-77.04770288 38.91071637),107,20th & O St NW / Dupont South,42.0,19,38.908905,-77.04478,active,POINT(-77.04478 38.908905),True,0.2009367018831
34,Anderson House,2118 MASSACHUSETTS AVENUE NW,-77.04770288,38.91071637,293220,POINT(-77.04770288 38.91071637),556,18th & New Hampshire Ave NW,42.0,19,38.911268,-77.041829,active,POINT(-77.041829 38.911268),True,0.3181580825508413
35,Armenian Genocide Museum and Memorial,1334 G STREET NW,-77.03108204,38.89804146,240658,POINT(-77.03108204 38.89804146),117,14th & G St NW,42.0,23,38.898409,-77.032278,active,POINT(-77.032278 38.898409),True,0.06915726063107164
36,Armenian Genocide Museum and Memorial,1334 G STREET NW,-77.03108204,38.89804146,240658,POINT(-77.03108204 38.89804146),69,14th St & New York Ave NW,42.0,23,38.899632000000004,-77.031686,active,POINT(-77.031686 38.899632),True,0.11461863553233635
37,Armenian Genocide Museum and Memorial,1334 G STREET NW,-77.03108204,38.89804146,240658,POINT(-77.03108204 38.89804146),501,15th St & Pennsylvania Ave NW,42.0,19,38.89646474748647,-77.0333808660507,active,POINT(-77.0333808660507 38.8964647474865),True,0.16480465579951753
38,Armenian Genocide Museum and Memorial,1334 G STREET NW,-77.03108204,38.89804146,240658,POINT(-77.03108204 38.89804146),91,13th St & New York Ave NW,42.0,23,38.900283,-77.029822,active,POINT(-77.029822 38.900283),True,0.16908413551527404
39,Armenian Genocide Museum and Memorial,1334 G STREET NW,-77.03108204,38.89804146,240658,POINT(-77.03108204 38.89804146),103,Metro Center / 12th & G St NW,42.0,39,38.898364,-77.027869,active,POINT(-77.027869 38.898364),True,0.17424288606515886
40,Art Museum of the Americas,201 18TH STREET NW,-77.0414716,38.89279239,294191,POINT(-77.0414716 38.89279239),393,18th & C St NW,42.0,19,38.893511,-77.04154399999999,active,POINT(-77.041544 38.893511),True,0.04981429842325008
41,Art Museum of the Americas,201 18TH STREET NW,-77.0414716,38.89279239,294191,POINT(-77.0414716 38.89279239),109,19th St & Constitution Ave NW,42.0,35,38.8923,-77.0436,active,POINT(-77.0436 38.8923),True,0.11943383427872795
42,Art Museum of the Americas,201 18TH STREET NW,-77.0414716,38.89279239,294191,POINT(-77.0414716 38.89279239),41,19th & E Street NW,42.0,11,38.8952,-77.0436,active,POINT(-77.0436 38.8952),True,0.20196573311466529
43,Art Museum of the Americas,201 18TH STREET NW,-77.0414716,38.89279239,294191,POINT(-77.0414716 38.89279239),206,20th St & Virginia Ave NW,42.0,15,38.894721999999994,-77.045128,active,POINT(-77.045128 38.894722),True,0.2376164509342405
44,Art Museum of the Americas,201 18TH STREET NW,-77.0414716,38.89279239,294191,POINT(-77.0414716 38.89279239),133,21st St & Constitution Ave NW,42.0,15,38.892459,-77.04656700000001,active,POINT(-77.046567 38.892459),True,0.2750410088676592
45,Arthur M. Sackler Gallery,1050 INDEPENDENCE AVENUE SW,-77.02644398,38.88795359,293191,POINT(-77.02644398 38.88795359),253,Independence Ave & L'Enfant Plaza SW/DOE,42.0,15,38.887312,-77.025762,active,POINT(-77.025762 38.887312),True,0.05754798509950264
46,Arthur M. Sackler Gallery,1050 INDEPENDENCE AVENUE SW,-77.02644398,38.88795359,293191,POINT(-77.02644398 38.88795359),169,Smithsonian-National Mall / Jefferson Dr & 12th St SW,42.0,35,38.888767,-77.02858,active,POINT(-77.02858 38.888767),True,0.1279141485707702
47,Arthur M. Sackler Gallery,1050 INDEPENDENCE AVENUE SW,-77.02644398,38.88795359,293191,POINT(-77.02644398 38.88795359),71,USDA / 12th & C St SW,42.0,39,38.886276945065106,-77.02824175357819,active,POINT(-77.0282417535782 38.8862769450651),True,0.15092420720940197
48,Arthur M. Sackler Gallery,1050 INDEPENDENCE AVENUE SW,-77.02644398,38.88795359,293191,POINT(-77.02644398 38.88795359),400,10th St & L'Enfant Plaza SW,42.0,23,38.88432272414662,-77.02601015567778,active,POINT(-77.0260101556778 38.8843227241466),True,0.2520055024432881
49,Arthur M. Sackler Gallery,1050 INDEPENDENCE AVENUE SW,-77.02644398,38.88795359,293191,POINT(-77.02644398 38.88795359),75,L'Enfant Plaza / 7th & C St SW,42.0,15,38.886266,-77.02224100000001,active,POINT(-77.022241 38.886266),True,0.2543979487423177
50,Charles Sumner School,1201 17TH STREET NW,-77.03823126,38.90596805,301200,POINT(-77.03823126 38.90596805),136,Rhode Island & Connecticut Ave NW,42.0,23,38.90599569999115,-77.03980207443237,active,POINT(-77.0398020744324 38.9059956999911),True,0.08449758298928527
51,Charles Sumner School,1201 17TH STREET NW,-77.03823126,38.90596805,301200,POINT(-77.03823126 38.90596805),229,17th St & Massachusetts Ave NW,42.0,19,38.908142,-77.038359,active,POINT(-77.038359 38.908142),True,0.15039475305981356
52,Charles Sumner School,1201 17TH STREET NW,-77.03823126,38.90596805,301200,POINT(-77.03823126 38.90596805),483,15th & M St NW,42.0,19,38.905424,-77.034674,active,POINT(-77.034674 38.905424),True,0.1949644305129553
53,Charles Sumner School,1201 17TH STREET NW,-77.03823126,38.90596805,301200,POINT(-77.03823126 38.90596805),79,18th & M St NW,42.0,27,38.905066874553135,-77.04177886247633,active,POINT(-77.0417788624763 38.9050668745531),True,0.20069344580939655
54,Charles Sumner School,1201 17TH STREET NW,-77.03823126,38.90596805,301200,POINT(-77.03823126 38.90596805),54,17th & K St NW,42.0,23,38.90276,-77.03863,active,POINT(-77.03863 38.90276),True,0.2227372486498333
55,Clara Barton Missing Soldiers Office Museum,437 7TH STREET NW,-77.02169365,38.8958605,279777,POINT(-77.02169365 38.8958605),105,7th & F St NW / National Portrait Gallery,42.0,27,38.89728304853854,-77.02219069004057,active,POINT(-77.0221906900406 38.8972830485385),True,0.10187981497385433
56,Clara Barton Missing Soldiers Office Museum,437 7TH STREET NW,-77.02169365,38.8958605,279777,POINT(-77.02169365 38.8958605),248,8th & D St NW,42.0,15,38.894851,-77.02324,active,POINT(-77.02324 38.894851),True,0.10855793866034892
57,Clara Barton Missing Soldiers Office Museum,437 7TH STREET NW,-77.02169365,38.8958605,279777,POINT(-77.02169365 38.8958605),171,6th St & Indiana Ave NW,42.0,19,38.894573,-77.01994,active,POINT(-77.01994 38.894573),True,0.12966757681257854
58,Clara Barton Missing Soldiers Office Museum,437 7TH STREET NW,-77.02169365,38.8958605,279777,POINT(-77.02169365 38.8958605),82,5th & F St NW,42.0,31,38.897222,-77.019347,active,POINT(-77.019347 38.897222),True,0.15742795002707138
59,Clara Barton Missing Soldiers Office Museum,437 7TH STREET NW,-77.02169365,38.8958605,279777,POINT(-77.02169365 38.8958605),199,10th & E St NW,42.0,15,38.895914000000005,-77.026064,active,POINT(-77.026064 38.895914),True,0.23509316479001305
60,Corcoran Gallery of Art,500 17TH STREET NW,-77.03974044,38.89584701,279802,POINT(-77.03974044 38.89584701),349,17th & G St NW,42.0,31,38.89829964921176,-77.03973233699799,active,POINT(-77.039732336998 38.8982996492118),True,0.16949805272348015
61,Corcoran Gallery of Art,500 17TH STREET NW,-77.03974044,38.89584701,279802,POINT(-77.03974044 38.89584701),393,18th & C St NW,42.0,19,38.893511,-77.04154399999999,active,POINT(-77.041544 38.893511),True,0.18834178054916875
62,Corcoran Gallery of Art,500 17TH STREET NW,-77.03974044,38.89584701,279802,POINT(-77.03974044 38.89584701),41,19th & E Street NW,42.0,11,38.8952,-77.0436,active,POINT(-77.0436 38.8952),True,0.2123526537234217
63,Corcoran Gallery of Art,500 17TH STREET NW,-77.03974044,38.89584701,279802,POINT(-77.03974044 38.89584701),357,19th & G St NW,42.0,23,38.898412,-77.043182,active,POINT(-77.043182 38.898412),True,0.2562919687942648
64,Corcoran Gallery of Art,500 17TH STREET NW,-77.03974044,38.89584701,279802,POINT(-77.03974044 38.89584701),141,18th St & Pennsylvania Ave NW,42.0,27,38.89968,-77.041539,active,POINT(-77.041539 38.89968),True,0.2820016445975653
65,D.C. Fire and EMS Museum,439 NEW JERSEY AVENUE NW,-77.0109,38.895835,237163,POINT(-77.0109 38.895835),546,New Jersey Ave & F St NW,42.0,33,38.897108,-77.011616,active,POINT(-77.011616 38.897108),True,0.09603445596726154
66,D.C. Fire and EMS Museum,439 NEW JERSEY AVENUE NW,-77.0109,38.895835,237163,POINT(-77.0109 38.895835),114,North Capitol St & F St NW,42.0,23,38.897446,-77.009888,active,POINT(-77.009888 38.897446),True,0.12392673943828501
67,D.C. Fire and EMS Museum,439 NEW JERSEY AVENUE NW,-77.0109,38.895835,237163,POINT(-77.0109 38.895835),108,4th & D St NW / Judiciary Square,42.0,15,38.895344,-77.01610600000001,active,POINT(-77.016106 38.895344),True,0.28206009345345484
68,D.C. Fire and EMS Museum,439 NEW JERSEY AVENUE NW,-77.0109,38.895835,237163,POINT(-77.0109 38.895835),310,North Capitol St & G Pl NE,42.0,19,38.899703,-77.008911,active,POINT(-77.008911 38.899703),True,0.2879221339183139
69,D.C. Fire and EMS Museum,439 NEW JERSEY AVENUE NW,-77.0109,38.895835,237163,POINT(-77.0109 38.895835),251,Constitution Ave & 2nd St NW/DOL,42.0,27,38.892275,-77.013917,active,POINT(-77.013917 38.892275),True,0.29472390619722594
70,Daughters of the American Revolution Museum,1776 D STREET NW,-77.03999645,38.89395841,279384,POINT(-77.03999645 38.89395841),393,18th & C St NW,42.0,19,38.893511,-77.04154399999999,active,POINT(-77.041544 38.893511),True,0.08879635763255696
71,Daughters of the American Revolution Museum,1776 D STREET NW,-77.03999645,38.89395841,279384,POINT(-77.03999645 38.89395841),41,19th & E Street NW,42.0,11,38.8952,-77.0436,active,POINT(-77.0436 38.8952),True,0.21196760060421174
72,Daughters of the American Revolution Museum,1776 D STREET NW,-77.03999645,38.89395841,279384,POINT(-77.03999645 38.89395841),109,19th St & Constitution Ave NW,42.0,35,38.8923,-77.0436,active,POINT(-77.0436 38.8923),True,0.22517738267013673
73,Daughters of the American Revolution Museum,1776 D STREET NW,-77.03999645,38.89395841,279384,POINT(-77.03999645 38.89395841),206,20th St & Virginia Ave NW,42.0,15,38.894721999999994,-77.045128,active,POINT(-77.045128 38.894722),True,0.2810113482255591
74,Daughters of the American Revolution Museum,1776 D STREET NW,-77.03999645,38.89395841,279384,POINT(-77.03999645 38.89395841),349,17th & G St NW,42.0,31,38.89829964921176,-77.03973233699799,active,POINT(-77.039732336998 38.8982996492118),True,0.3003513721265205
75,Decatur House Museum,748 JACKSON PLACE NW,-77.03819661,38.90002633,293257,POINT(-77.03819661 38.90002633),349,17th & G St NW,42.0,31,38.89829964921176,-77.03973233699799,active,POINT(-77.039732336998 38.8982996492118),True,0.14512540634771556
76,Decatur House Museum,748 JACKSON PLACE NW,-77.03819661,38.90002633,293257,POINT(-77.03819661 38.90002633),141,18th St & Pennsylvania Ave NW,42.0,27,38.89968,-77.041539,active,POINT(-77.041539 38.89968),True,0.18135042225634052
77,Decatur House Museum,748 JACKSON PLACE NW,-77.03819661,38.90002633,293257,POINT(-77.03819661 38.90002633),54,17th & K St NW,42.0,23,38.90276,-77.03863,active,POINT(-77.03863 38.90276),True,0.19035148228272966
78,Decatur House Museum,748 JACKSON PLACE NW,-77.03819661,38.90002633,293257,POINT(-77.03819661 38.90002633),14,19th St & Pennsylvania Ave NW,42.0,15,38.9003,-77.0429,active,POINT(-77.0429 38.9003),True,0.2536678104662456
79,Decatur House Museum,748 JACKSON PLACE NW,-77.03819661,38.90002633,293257,POINT(-77.03819661 38.90002633),357,19th & G St NW,42.0,23,38.898412,-77.043182,active,POINT(-77.043182 38.898412),True,0.2904156206434986
80,Dumbarton House,2715 Q STREET NW,-77.05586536,38.91085356,273151,POINT(-77.05586536 38.91085356),198,24th & N St NW,42.0,15,38.9066,-77.05152,active,POINT(-77.05152 38.9066),True,0.3755200953318641
81,Dumbarton House,2715 Q STREET NW,-77.05586536,38.91085356,273151,POINT(-77.05586536 38.91085356),394,22nd & P ST NW,42.0,19,38.909394,-77.048728,active,POINT(-77.048728 38.909394),True,0.3968466982431239
82,Dumbarton House,2715 Q STREET NW,-77.05586536,38.91085356,273151,POINT(-77.05586536 38.91085356),153,M St & Pennsylvania Ave NW,42.0,19,38.905126,-77.056887,active,POINT(-77.056887 38.905126),True,0.3996161262062873
83,Dumbarton House,2715 Q STREET NW,-77.05586536,38.91085356,273151,POINT(-77.05586536 38.91085356),226,Wisconsin Ave & O St NW,42.0,19,38.90849,-77.063586,active,POINT(-77.063586 38.90849),True,0.4461579638021555
84,Dumbarton House,2715 Q STREET NW,-77.05586536,38.91085356,273151,POINT(-77.05586536 38.91085356),490,23rd & M St NW,42.0,19,38.905303,-77.050264,active,POINT(-77.050264 38.905303),True,0.4877256970946457
85,Ford's Theatre,511 10TH STREET NW,-77.02579655,38.89658294,239829,POINT(-77.02579655 38.89658294),199,10th & E St NW,42.0,15,38.895914000000005,-77.026064,active,POINT(-77.026064 38.895914),True,0.04841561363159564
86,Ford's Theatre,511 10TH STREET NW,-77.02579655,38.89658294,239829,POINT(-77.02579655 38.89658294),125,11th & F St NW,42.0,15,38.897857,-77.026975,active,POINT(-77.026975 38.897857),True,0.10848898640675624
87,Ford's Theatre,511 10TH STREET NW,-77.02579655,38.89658294,239829,POINT(-77.02579655 38.89658294),334,10th & G St NW,42.0,23,38.89824328774852,-77.02623546123505,active,POINT(-77.026235461235 38.8982432877485),True,0.11714686279003016
88,Ford's Theatre,511 10TH STREET NW,-77.02579655,38.89658294,239829,POINT(-77.02579655 38.89658294),103,Metro Center / 12th & G St NW,42.0,39,38.898364,-77.027869,active,POINT(-77.027869 38.898364),True,0.16605695707506546
89,Ford's Theatre,511 10TH STREET NW,-77.02579655,38.89658294,239829,POINT(-77.02579655 38.89658294),248,8th & D St NW,42.0,15,38.894851,-77.02324,active,POINT(-77.02324 38.894851),True,0.18230256549527227
90,Frederick Douglass National Historic Site,1411 W STREET SE,-76.98517717,38.863382,293207,POINT(-76.98517717 38.863382),179,Good Hope Rd & 14th St SE,42.0,15,38.866611,-76.985238,active,POINT(-76.985238 38.866611),True,0.22317439764140504
91,Frederick Douglass National Historic Site,1411 W STREET SE,-76.98517717,38.863382,293207,POINT(-76.98517717 38.863382),240,Pleasant St & MLK Ave SE,42.0,11,38.863896999999994,-76.990037,active,POINT(-76.990037 38.863897),True,0.26392074517488373
92,Frederick Douglass National Historic Site,1411 W STREET SE,-76.98517717,38.863382,293207,POINT(-76.98517717 38.863382),40,Good Hope Rd & MLK Ave SE,42.0,11,38.867373,-76.988039,active,POINT(-76.988039 38.867373),True,0.3158882712371961
93,Frederick Douglass National Historic Site,1411 W STREET SE,-76.98517717,38.863382,293207,POINT(-76.98517717 38.863382),66,Anacostia Library,42.0,11,38.865784000000005,-76.9784,active,POINT(-76.9784 38.865784),True,0.4006812677733021
94,Frederick Douglass National Historic Site,1411 W STREET SE,-76.98517717,38.863382,293207,POINT(-76.98517717 38.863382),39,Anacostia Metro,42.0,11,38.862669,-76.994637,active,POINT(-76.994637 38.862669),True,0.5114219835653966
95,Freer Gallery of Art,,-77.027348,38.888268,294417,POINT(-77.027348 38.888268),169,Smithsonian-National Mall / Jefferson Dr & 12th St SW,42.0,35,38.888767,-77.02858,active,POINT(-77.02858 38.888767),True,0.07470680741687641
96,Freer Gallery of Art,,-77.027348,38.888268,294417,POINT(-77.027348 38.888268),253,Independence Ave & L'Enfant Plaza SW/DOE,42.0,15,38.887312,-77.025762,active,POINT(-77.025762 38.887312),True,0.10790490280230404
97,Freer Gallery of Art,,-77.027348,38.888268,294417,POINT(-77.027348 38.888268),71,USDA / 12th & C St SW,42.0,39,38.886276945065106,-77.02824175357819,active,POINT(-77.0282417535782 38.8862769450651),True,0.14575563496574667
98,Freer Gallery of Art,,-77.027348,38.888268,294417,POINT(-77.027348 38.888268),168,Jefferson Dr & 14th St SW,42.0,23,38.888553,-77.03242900000001,active,POINT(-77.032429 38.888553),True,0.27402469899322385
99,Freer Gallery of Art,,-77.027348,38.888268,294417,POINT(-77.027348 38.888268),400,10th St & L'Enfant Plaza SW,42.0,23,38.88432272414662,-77.02601015567778,active,POINT(-77.0260101556778 38.8843227241466),True,0.281989007836933
100,Gallaudet University Museum,800 FLORIDA AVENUE NE,-76.99492972,38.90577601,288964,POINT(-76.99492972 38.90577601),183,Gallaudet / 8th St & Florida Ave NE,42.0,19,38.90509,-76.9941,active,POINT(-76.9941 38.90509),True,0.06510511070148443
101,Gallaudet University Museum,800 FLORIDA AVENUE NE,-76.99492972,38.90577601,288964,POINT(-76.99492972 38.90577601),353,Union Market,42.0,23,38.907908,-76.99707,active,POINT(-76.99707 38.907908),True,0.18696629349064767
102,Gallaudet University Museum,800 FLORIDA AVENUE NE,-76.99492972,38.90577601,288964,POINT(-76.99492972 38.90577601),601,8th & K St NE,42.0,15,38.90273216425077,-76.99514991079924,active,POINT(-76.9951499107992 38.9027321642508),True,0.21068776535574554
103,Gallaudet University Museum,800 FLORIDA AVENUE NE,-76.99492972,38.90577601,288964,POINT(-76.99492972 38.90577601),458,6th & K St NE,42.0,19,38.90293157359119,-76.9984048604965,active,POINT(-76.9984048604965 38.9029315735912),True,0.2712377291494716
104,Gallaudet University Museum,800 FLORIDA AVENUE NE,-76.99492972,38.90577601,288964,POINT(-76.99492972 38.90577601),210,3rd & M St NE,42.0,23,38.90546971494327,-77.0021304488182,active,POINT(-77.0021304488182 38.9054697149433),True,0.3878241268375463
105,German-American Heritage Museum,719 6TH STREET NW,-77.0195865,38.89910316,238949,POINT(-77.0195865 38.89910316),82,5th & F St NW,42.0,31,38.897222,-77.019347,active,POINT(-77.019347 38.897222),True,0.130640203799722
106,German-American Heritage Museum,719 6TH STREET NW,-77.0195865,38.89910316,238949,POINT(-77.0195865 38.89910316),207,5th St & Massachusetts Ave NW,42.0,19,38.900929999999995,-77.018677,active,POINT(-77.018677 38.90093),True,0.1353946346351128
107,German-American Heritage Museum,719 6TH STREET NW,-77.0195865,38.89910316,238949,POINT(-77.0195865 38.89910316),105,7th & F St NW / National Portrait Gallery,42.0,27,38.89728304853854,-77.02219069004057,active,POINT(-77.0221906900406 38.8972830485385),True,0.18825485308649992
108,German-American Heritage Museum,719 6TH STREET NW,-77.0195865,38.89910316,238949,POINT(-77.0195865 38.89910316),92,8th & H St NW,42.0,33,38.8997,-77.02308599999999,active,POINT(-77.023086 38.8997),True,0.19268165232684972
109,German-American Heritage Museum,719 6TH STREET NW,-77.0195865,38.89910316,238949,POINT(-77.0195865 38.89910316),55,3rd & H St NW,42.0,15,38.899408,-77.015289,active,POINT(-77.015289 38.899408),True,0.2320929035751877
110,Heurich House Museum,1307 NEW HAMPSHIRE AVENUE NW,-77.04460391,38.90802275,241060,POINT(-77.04460391 38.90802275),107,20th & O St NW / Dupont South,42.0,19,38.908905,-77.04478,active,POINT(-77.04478 38.908905),True,0.061701698997981565
111,Heurich House Museum,1307 NEW HAMPSHIRE AVENUE NW,-77.04460391,38.90802275,241060,POINT(-77.04460391 38.90802275),51,Massachusetts Ave & Dupont Circle NW,42.0,45,38.9101,-77.0444,active,POINT(-77.0444 38.9101),True,0.1439732097945434
112,Heurich House Museum,1307 NEW HAMPSHIRE AVENUE NW,-77.04460391,38.90802275,241060,POINT(-77.04460391 38.90802275),53,New Hampshire Ave & Ward Pl NW,42.0,19,38.90571079190728,-77.04731762409209,active,POINT(-77.0473176240921 38.9057107919073),True,0.21639293322553085
113,Heurich House Museum,1307 NEW HAMPSHIRE AVENUE NW,-77.04460391,38.90802275,241060,POINT(-77.04460391 38.90802275),394,22nd & P ST NW,42.0,19,38.909394,-77.048728,active,POINT(-77.048728 38.909394),True,0.2411765203216335
114,Heurich House Museum,1307 NEW HAMPSHIRE AVENUE NW,-77.04460391,38.90802275,241060,POINT(-77.04460391 38.90802275),79,18th & M St NW,42.0,27,38.905066874553135,-77.04177886247633,active,POINT(-77.0417788624763 38.9050668745531),True,0.2545775514037045
115,Hillwood Museum,4155 LINNEAN AVENUE NW,-77.05261735,38.94363425,284839,POINT(-77.05261735 38.94363425),314,Connecticut Ave & Tilden St NW,42.0,15,38.94113915653008,-77.061977237463,active,POINT(-77.061977237463 38.9411391565301),True,0.5318310710602493
116,Hillwood Museum,4155 LINNEAN AVENUE NW,-77.05261735,38.94363425,284839,POINT(-77.05261735 38.94363425),60,Van Ness Metro / UDC,42.0,15,38.944551000000004,-77.063896,active,POINT(-77.063896 38.944551),True,0.6095241808392057
117,Hillwood Museum,4155 LINNEAN AVENUE NW,-77.05261735,38.94363425,284839,POINT(-77.05261735 38.94363425),35,Connecticut Ave & Newark St NW / Cleveland Park,42.0,11,38.934267,-77.057979,active,POINT(-77.057979 38.934267),True,0.7086116210825713
118,Hillwood Museum,4155 LINNEAN AVENUE NW,-77.05261735,38.94363425,284839,POINT(-77.05261735 38.94363425),401,Connecticut Ave & Yuma St NW,42.0,19,38.947156,-77.065115,active,POINT(-77.065115 38.947156),True,0.7144629256490973
119,Hillwood Museum,4155 LINNEAN AVENUE NW,-77.05261735,38.94363425,284839,POINT(-77.05261735 38.94363425),589,17th & Upshur St NW,42.0,19,38.942146,-77.038684,active,POINT(-77.038684 38.942146),True,0.7559535883885059
120,Hirshhorn Museum and Sculpture Garden,,-77.022961,38.888407,294428,POINT(-77.022961 38.888407),75,L'Enfant Plaza / 7th & C St SW,42.0,15,38.886266,-77.02224100000001,active,POINT(-77.022241 38.886266),True,0.15294581512358082
121,Hirshhorn Museum and Sculpture Garden,,-77.022961,38.888407,294428,POINT(-77.022961 38.888407),253,Independence Ave & L'Enfant Plaza SW/DOE,42.0,15,38.887312,-77.025762,active,POINT(-77.025762 38.887312),True,0.16860752468036244
122,Hirshhorn Museum and Sculpture Garden,,-77.022961,38.888407,294428,POINT(-77.022961 38.888407),169,Smithsonian-National Mall / Jefferson Dr & 12th St SW,42.0,35,38.888767,-77.02858,active,POINT(-77.02858 38.888767),True,0.3032773484455037
123,Hirshhorn Museum and Sculpture Garden,,-77.022961,38.888407,294428,POINT(-77.022961 38.888407),142,4th & C St SW,42.0,39,38.88637194054526,-77.01770067214966,active,POINT(-77.0177006721497 38.8863719405453),True,0.315989535528288
124,Hirshhorn Museum and Sculpture Garden,,-77.022961,38.888407,294428,POINT(-77.022961 38.888407),71,USDA / 12th & C St SW,42.0,39,38.886276945065106,-77.02824175357819,active,POINT(-77.0282417535782 38.8862769450651),True,0.3199409397435417
125,Historical Society of Washington DC,801 K STREET NW,-77.02294275,38.90262211,238956,POINT(-77.02294275 38.90262211),543,7th & K St NW,42.0,19,38.902674,-77.021392,active,POINT(-77.021392 38.902674),True,0.08347791559106492
126,Historical Society of Washington DC,801 K STREET NW,-77.02294275,38.90262211,238956,POINT(-77.02294275 38.90262211),159,10th & K St NW,42.0,23,38.9024,-77.02622,active,POINT(-77.02622 38.9024),True,0.17692118182036767
127,Historical Society of Washington DC,801 K STREET NW,-77.02294275,38.90262211,238956,POINT(-77.02294275 38.90262211),92,8th & H St NW,42.0,33,38.8997,-77.02308599999999,active,POINT(-77.023086 38.8997),True,0.2020886855047482
128,Historical Society of Washington DC,801 K STREET NW,-77.02294275,38.90262211,238956,POINT(-77.02294275 38.90262211),31,5th & K St NW,42.0,19,38.903040000000004,-77.01902700000001,active,POINT(-77.019027 38.90304),True,0.21256331708125772
129,Historical Society of Washington DC,801 K STREET NW,-77.02294275,38.90262211,238956,POINT(-77.02294275 38.90262211),84,Convention Center / 7th & M St NW,42.0,23,38.905737,-77.02226999999999,active,POINT(-77.02227 38.905737),True,0.2182837722955841
130,House of the Temple,1733 16TH STREET NW,-77.03582659,38.91369256,242883,POINT(-77.03582659 38.91369256),387,16th & R St NW,42.0,19,38.912652,-77.036278,active,POINT(-77.036278 38.912652),True,0.07589754091215267
131,House of the Temple,1733 16TH STREET NW,-77.03582659,38.91369256,242883,POINT(-77.03582659 38.91369256),102,New Hampshire Ave & T St NW,42.0,23,38.91554,-77.03818000000001,active,POINT(-77.03818 38.91554),True,0.17976288873774418
132,House of the Temple,1733 16TH STREET NW,-77.03582659,38.91369256,242883,POINT(-77.03582659 38.91369256),59,17th & Corcoran St NW,42.0,19,38.9121,-77.0387,active,POINT(-77.0387 38.9121),True,0.1897026304214003
133,House of the Temple,1733 16TH STREET NW,-77.03582659,38.91369256,242883,POINT(-77.03582659 38.91369256),24,14th & R St NW,42.0,19,38.913046,-77.03200799999999,active,POINT(-77.032008 38.913046),True,0.2101418894786813
134,House of the Temple,1733 16TH STREET NW,-77.03582659,38.91369256,242883,POINT(-77.03582659 38.91369256),23,15th & P St NW,42.0,19,38.90985,-77.034438,active,POINT(-77.034438 38.90985),True,0.27585089863071355
135,Howard University Gallery of Art,2455 6TH STREET NW,-77.02098138,38.92452904,188381,POINT(-77.02098138 38.92452904),44,Georgia Ave and Fairmont St NW,42.0,11,38.9249,-77.0222,active,POINT(-77.0222 38.9249),True,0.07035523563237088
136,Howard University Gallery of Art,2455 6TH STREET NW,-77.02098138,38.92452904,188381,POINT(-77.02098138 38.92452904),148,Columbia Rd & Georgia Ave NW,42.0,19,38.92812111132096,-77.02379465103151,active,POINT(-77.0237946510315 38.928121111321),True,0.2906896225847692
137,Howard University Gallery of Art,2455 6TH STREET NW,-77.02098138,38.92452904,188381,POINT(-77.02098138 38.92452904),484,11th & Girard St NW,42.0,19,38.925636,-77.027112,active,POINT(-77.027112 38.925636),True,0.3383677462687817
138,Howard University Gallery of Art,2455 6TH STREET NW,-77.02098138,38.92452904,188381,POINT(-77.02098138 38.92452904),274,10th & Florida Ave NW,42.0,19,38.920387,-77.025672,active,POINT(-77.025672 38.920387),True,0.3814985631689405
139,Howard University Gallery of Art,2455 6TH STREET NW,-77.02098138,38.92452904,188381,POINT(-77.02098138 38.92452904),16,11th & Kenyon St NW,42.0,27,38.929464,-77.027822,active,POINT(-77.027822 38.929464),True,0.501564160506464
140,Howard University Museum,500 HOWARD PLACE NW,-77.0196969,38.92235277,243398,POINT(-77.0196969 38.92235277),44,Georgia Ave and Fairmont St NW,42.0,11,38.9249,-77.0222,active,POINT(-77.0222 38.9249),True,0.22158464361595803
141,Howard University Museum,500 HOWARD PLACE NW,-77.0196969,38.92235277,243398,POINT(-77.0196969 38.92235277),274,10th & Florida Ave NW,42.0,19,38.920387,-77.025672,active,POINT(-77.025672 38.920387),True,0.34880469351767374
142,Howard University Museum,500 HOWARD PLACE NW,-77.0196969,38.92235277,243398,POINT(-77.0196969 38.92235277),249,3rd & Elm St NW,42.0,15,38.917621999999994,-77.01597,active,POINT(-77.01597 38.917622),True,0.38346004974930825
143,Howard University Museum,500 HOWARD PLACE NW,-77.0196969,38.92235277,243398,POINT(-77.0196969 38.92235277),148,Columbia Rd & Georgia Ave NW,42.0,19,38.92812111132096,-77.02379465103151,active,POINT(-77.0237946510315 38.928121111321),True,0.4554673750292594
144,Howard University Museum,500 HOWARD PLACE NW,-77.0196969,38.92235277,243398,POINT(-77.0196969 38.92235277),484,11th & Girard St NW,42.0,19,38.925636,-77.027112,active,POINT(-77.027112 38.925636),True,0.4587174171375421
145,Interior Museum,1849 C STREET NW,-77.04260027,38.89444538,293214,POINT(-77.04260027 38.89444538),41,19th & E Street NW,42.0,11,38.8952,-77.0436,active,POINT(-77.0436 38.8952),True,0.07490752390696834
146,Interior Museum,1849 C STREET NW,-77.04260027,38.89444538,293214,POINT(-77.04260027 38.89444538),393,18th & C St NW,42.0,19,38.893511,-77.04154399999999,active,POINT(-77.041544 38.893511),True,0.08600909504385001
147,Interior Museum,1849 C STREET NW,-77.04260027,38.89444538,293214,POINT(-77.04260027 38.89444538),206,20th St & Virginia Ave NW,42.0,15,38.894721999999994,-77.045128,active,POINT(-77.045128 38.894722),True,0.13729662468773182
148,Interior Museum,1849 C STREET NW,-77.04260027,38.89444538,293214,POINT(-77.04260027 38.89444538),109,19th St & Constitution Ave NW,42.0,35,38.8923,-77.0436,active,POINT(-77.0436 38.8923),True,0.15771370077096725
149,Interior Museum,1849 C STREET NW,-77.04260027,38.89444538,293214,POINT(-77.04260027 38.89444538),26,20th & E St NW,42.0,15,38.8963,-77.045,active,POINT(-77.045 38.8963),True,0.18189904921311853
150,International Spy Museum,800 F STREET NW,-77.02328389,38.89697903,238378,POINT(-77.02328389 38.89697903),105,7th & F St NW / National Portrait Gallery,42.0,27,38.89728304853854,-77.02219069004057,active,POINT(-77.0221906900406 38.8972830485385),True,0.06243896665432541
151,International Spy Museum,800 F STREET NW,-77.02328389,38.89697903,238378,POINT(-77.02328389 38.89697903),248,8th & D St NW,42.0,15,38.894851,-77.02324,active,POINT(-77.02324 38.894851),True,0.14708327808397714
152,International Spy Museum,800 F STREET NW,-77.02328389,38.89697903,238378,POINT(-77.02328389 38.89697903),199,10th & E St NW,42.0,15,38.895914000000005,-77.026064,active,POINT(-77.026064 38.895914),True,0.16666298776701902
153,International Spy Museum,800 F STREET NW,-77.02328389,38.89697903,238378,POINT(-77.02328389 38.89697903),334,10th & G St NW,42.0,23,38.89824328774852,-77.02623546123505,active,POINT(-77.026235461235 38.8982432877485),True,0.181204504251964
154,International Spy Museum,800 F STREET NW,-77.02328389,38.89697903,238378,POINT(-77.02328389 38.89697903),92,8th & H St NW,42.0,33,38.8997,-77.02308599999999,active,POINT(-77.023086 38.8997),True,0.18834232410055785
155,Kreeger Museum,2401 FOXHALL ROAD NW,-77.08877868,38.92190452,271251,POINT(-77.08877868 38.92190452),533,48th Pl & MacArthur Blvd NW,42.0,14,38.917304,-77.09629,active,POINT(-77.09629 38.917304),True,0.5139966245219532
156,Kreeger Museum,2401 FOXHALL ROAD NW,-77.08877868,38.92190452,271251,POINT(-77.08877868 38.92190452),163,39th & Calvert St NW / Stoddert,42.0,19,38.922649,-77.077271,active,POINT(-77.077271 38.922649),True,0.6208586374098575
157,Kreeger Museum,2401 FOXHALL ROAD NW,-77.08877868,38.92190452,271251,POINT(-77.08877868 38.92190452),611,Hardy Rec Center,42.0,17,38.90970086204467,-77.0856463909149,active,POINT(-77.0856463909149 38.9097008620447),True,0.8600263208587264
158,Kreeger Museum,2401 FOXHALL ROAD NW,-77.08877868,38.92190452,271251,POINT(-77.08877868 38.92190452),116,36th & Calvert St NW / Glover Park,42.0,15,38.922581,-77.070334,active,POINT(-77.070334 38.922581),True,0.9928004921249408
159,Kreeger Museum,2401 FOXHALL ROAD NW,-77.08877868,38.92190452,271251,POINT(-77.08877868 38.92190452),487,American University East Campus,42.0,19,38.936298,-77.087128,active,POINT(-77.087128 38.936298),True,0.998658245844118
160,L. Ron Hubbard House,1812 19TH STREET NW,-77.04373354,38.91458854,240991,POINT(-77.04373354 38.91458854),46,20th St & Florida Ave NW,42.0,15,38.9154,-77.0446,active,POINT(-77.0446 38.9154),True,0.07290761995868845
161,L. Ron Hubbard House,1812 19TH STREET NW,-77.04373354,38.91458854,240991,POINT(-77.04373354 38.91458854),351,18th & R St NW,42.0,19,38.912648,-77.041834,active,POINT(-77.041834 38.912648),True,0.16857642810051754
162,L. Ron Hubbard House,1812 19TH STREET NW,-77.04373354,38.91458854,240991,POINT(-77.04373354 38.91458854),485,Connecticut Ave & R St NW,42.0,19,38.912644,-77.04564,active,POINT(-77.04564 38.912644),True,0.16902185462692654
163,L. Ron Hubbard House,1812 19TH STREET NW,-77.04373354,38.91458854,240991,POINT(-77.04373354 38.91458854),556,18th & New Hampshire Ave NW,42.0,19,38.911268,-77.041829,active,POINT(-77.041829 38.911268),True,0.2512925654937709
164,L. Ron Hubbard House,1812 19TH STREET NW,-77.04373354,38.91458854,240991,POINT(-77.04373354 38.91458854),149,California St & Florida Ave NW,42.0,19,38.917761,-77.04061999999999,active,POINT(-77.04062 38.917761),True,0.27585514601690464
165,Lincoln's Cottage,LINCOLN''S COTTAGE,-77.0117684,38.94170034,292871,POINT(-77.0117684 38.94170034),590,Grant Circle,42.0,19,38.942024743273045,-77.01822102069855,active,POINT(-77.0182210206985 38.9420247432731),True,0.34756032760967104
166,Lincoln's Cottage,LINCOLN''S COTTAGE,-77.0117684,38.94170034,292871,POINT(-77.0117684 38.94170034),540,Kansas Ave & Sherman Cr NW,42.0,19,38.948057,-77.021467,active,POINT(-77.021467 38.948057),True,0.6817076083933988
167,Lincoln's Cottage,LINCOLN''S COTTAGE,-77.0117684,38.94170034,292871,POINT(-77.0117684 38.94170034),554,New Hampshire & Gallatin St NW,42.0,19,38.951596,-77.01280799999999,active,POINT(-77.012808 38.951596),True,0.6861501886052818
168,Lincoln's Cottage,LINCOLN''S COTTAGE,-77.0117684,38.94170034,292871,POINT(-77.0117684 38.94170034),146,9th & Upshur St NW,42.0,15,38.9418,-77.0251,active,POINT(-77.0251 38.9418),True,0.7166245903711849
169,Lincoln's Cottage,LINCOLN''S COTTAGE,-77.0117684,38.94170034,292871,POINT(-77.0117684 38.94170034),28,Georgia & New Hampshire Ave NW,42.0,19,38.9366839345886,-77.02418088912965,active,POINT(-77.0241808891296 38.9366839345886),True,0.7519011913850595
170,Luther W. Brady Art Gallery,805 21ST STREET NW,-77.04638644,38.89980986,240947,POINT(-77.04638644 38.89980986),27,21st & I St NW,42.0,35,38.90071062547464,-77.04644858837126,active,POINT(-77.0464485883713 38.9007106254746),True,0.062339957791086635
171,Luther W. Brady Art Gallery,805 21ST STREET NW,-77.04638644,38.89980986,240947,POINT(-77.04638644 38.89980986),187,21st St & Pennsylvania Ave NW,42.0,19,38.901539,-77.046564,active,POINT(-77.046564 38.901539),True,0.11987873050785805
172,Luther W. Brady Art Gallery,805 21ST STREET NW,-77.04638644,38.89980986,240947,POINT(-77.04638644 38.89980986),609,22nd & H St NW,42.0,17,38.89892546716841,-77.04885238395946,active,POINT(-77.0488523839595 38.8989254671684),True,0.14603229844976495
173,Luther W. Brady Art Gallery,805 21ST STREET NW,-77.04638644,38.89980986,240947,POINT(-77.04638644 38.89980986),200,22nd & I St NW / Foggy Bottom,42.0,15,38.90088,-77.048911,active,POINT(-77.048911 38.90088),True,0.1546124112870132
174,Luther W. Brady Art Gallery,805 21ST STREET NW,-77.04638644,38.89980986,240947,POINT(-77.04638644 38.89980986),14,19th St & Pennsylvania Ave NW,42.0,15,38.9003,-77.0429,active,POINT(-77.0429 38.9003),True,0.19054589684248147
175,Mary Bethune Council House,1318 VERMONT AVENUE NW,-77.03086335,38.90816835,225385,POINT(-77.03086335 38.90816835),25,14th & Rhode Island Ave NW,42.0,23,38.9086,-77.0323,active,POINT(-77.0323 38.9086),True,0.08281722131910646
176,Mary Bethune Council House,1318 VERMONT AVENUE NW,-77.03086335,38.90816835,225385,POINT(-77.03086335 38.90816835),137,Thomas Circle,42.0,33,38.9059,-77.0325,active,POINT(-77.0325 38.9059),True,0.17978007173567165
177,Mary Bethune Council House,1318 VERMONT AVENUE NW,-77.03086335,38.90816835,225385,POINT(-77.03086335 38.90816835),399,11th & O St NW,42.0,19,38.908429999999996,-77.02714,active,POINT(-77.02714 38.90843),True,0.20104429315303912
178,Mary Bethune Council House,1318 VERMONT AVENUE NW,-77.03086335,38.90816835,225385,POINT(-77.03086335 38.90816835),23,15th & P St NW,42.0,19,38.90985,-77.034438,active,POINT(-77.034438 38.90985),True,0.22463048854305015
179,Mary Bethune Council House,1318 VERMONT AVENUE NW,-77.03086335,38.90816835,225385,POINT(-77.03086335 38.90816835),115,11th & M St NW,42.0,19,38.905607,-77.027137,active,POINT(-77.027137 38.905607),True,0.2673774831758847
180,Meridian International Center,1630 CRESCENT PLACE NW,-77.0381824,38.92021925,235803,POINT(-77.0381824 38.92021925),214,18th St & Wyoming Ave NW,42.0,23,38.918809,-77.04157099999999,active,POINT(-77.041571 38.918809),True,0.20662737630613748
181,Meridian International Center,1630 CRESCENT PLACE NW,-77.0381824,38.92021925,235803,POINT(-77.0381824 38.92021925),453,15th & W St NW,42.0,19,38.919086,-77.034502,active,POINT(-77.034502 38.919086),True,0.21282207588092106
182,Meridian International Center,1630 CRESCENT PLACE NW,-77.0381824,38.92021925,235803,POINT(-77.0381824 38.92021925),149,California St & Florida Ave NW,42.0,19,38.917761,-77.04061999999999,active,POINT(-77.04062 38.917761),True,0.21456789482342614
183,Meridian International Center,1630 CRESCENT PLACE NW,-77.0381824,38.92021925,235803,POINT(-77.0381824 38.92021925),230,15th & Euclid St  NW,42.0,15,38.92333,-77.0352,active,POINT(-77.0352 38.92333),True,0.26819551121386964
184,Meridian International Center,1630 CRESCENT PLACE NW,-77.0381824,38.92021925,235803,POINT(-77.0381824 38.92021925),135,Columbia Rd & Belmont St NW,42.0,19,38.920669000000004,-77.04368000000001,active,POINT(-77.04368 38.920669),True,0.2972218067859089
185,Mexican Cultural Institute,2829 16TH STREET NW,-77.03603436,38.92554484,235878,POINT(-77.03603436 38.92554484),17,16th & Harvard St NW,42.0,33,38.926088,-77.036536,active,POINT(-77.036536 38.926088),True,0.04622106679482566
186,Mexican Cultural Institute,2829 16TH STREET NW,-77.03603436,38.92554484,235878,POINT(-77.03603436 38.92554484),230,15th & Euclid St  NW,42.0,15,38.92333,-77.0352,active,POINT(-77.0352 38.92333),True,0.15950170423269025
187,Mexican Cultural Institute,2829 16TH STREET NW,-77.03603436,38.92554484,235878,POINT(-77.03603436 38.92554484),397,14th & Girard St NW,42.0,23,38.925284000000005,-77.032375,active,POINT(-77.032375 38.925284),True,0.1975649394163545
188,Mexican Cultural Institute,2829 16TH STREET NW,-77.03603436,38.92554484,235878,POINT(-77.03603436 38.92554484),19,14th & Harvard St NW,42.0,19,38.9268,-77.0322,active,POINT(-77.0322 38.9268),True,0.22365343419049785
189,Mexican Cultural Institute,2829 16TH STREET NW,-77.03603436,38.92554484,235878,POINT(-77.03603436 38.92554484),386,16th & Irving St NW,42.0,19,38.928893,-77.03625,active,POINT(-77.03625 38.928893),True,0.23167557961806284
190,Museum of the Bible,400 4TH STREET SW,-77.017138,38.884831,311513,POINT(-77.017138 38.884831),143,4th & E St SW,42.0,19,38.88412,-77.017445,active,POINT(-77.017445 38.88412),True,0.05183709798238451
191,Museum of the Bible,400 4TH STREET SW,-77.017138,38.884831,311513,POINT(-77.017138 38.884831),142,4th & C St SW,42.0,39,38.88637194054526,-77.01770067214966,active,POINT(-77.0177006721497 38.8863719405453),True,0.11070970896712254
192,Museum of the Bible,400 4TH STREET SW,-77.017138,38.884831,311513,POINT(-77.017138 38.884831),252,Washington & Independence Ave SW/HHS,42.0,31,38.886978000000006,-77.013769,active,POINT(-77.013769 38.886978),True,0.234221803964094
193,Museum of the Bible,400 4TH STREET SW,-77.017138,38.884831,311513,POINT(-77.017138 38.884831),471,7th & E St SW,42.0,19,38.88345,-77.021741,active,POINT(-77.021741 38.88345),True,0.26537398506425075
194,Museum of the Bible,400 4TH STREET SW,-77.017138,38.884831,311513,POINT(-77.017138 38.884831),75,L'Enfant Plaza / 7th & C St SW,42.0,15,38.886266,-77.02224100000001,active,POINT(-77.022241 38.886266),True,0.29187449218640404
195,National Air and Space Museum,NATIONAL AIR AND SPACE MUSEUM,-77.01984769,38.88820497,301565,POINT(-77.01984769 38.88820497),142,4th & C St SW,42.0,39,38.88637194054526,-77.01770067214966,active,POINT(-77.0177006721497 38.8863719405453),True,0.17142331310130526
196,National Air and Space Museum,NATIONAL AIR AND SPACE MUSEUM,-77.01984769,38.88820497,301565,POINT(-77.01984769 38.88820497),75,L'Enfant Plaza / 7th & C St SW,42.0,15,38.886266,-77.02224100000001,active,POINT(-77.022241 38.886266),True,0.18582327977827864
197,National Air and Space Museum,NATIONAL AIR AND SPACE MUSEUM,-77.01984769,38.88820497,301565,POINT(-77.01984769 38.88820497),408,4th St & Madison Dr NW,42.0,31,38.890493,-77.017253,active,POINT(-77.017253 38.890493),True,0.2109088638062972
198,National Air and Space Museum,NATIONAL AIR AND SPACE MUSEUM,-77.01984769,38.88820497,301565,POINT(-77.01984769 38.88820497),143,4th & E St SW,42.0,19,38.88412,-77.017445,active,POINT(-77.017445 38.88412),True,0.31048573312476546
199,National Air and Space Museum,NATIONAL AIR AND SPACE MUSEUM,-77.01984769,38.88820497,301565,POINT(-77.01984769 38.88820497),253,Independence Ave & L'Enfant Plaza SW/DOE,42.0,15,38.887312,-77.025762,active,POINT(-77.025762 38.887312),True,0.32407402819660097
200,National Archives,700 PENNSYLVANIA AVENUE NW,-77.02285696,38.89284625,293251,POINT(-77.02285696 38.89284625),248,8th & D St NW,42.0,15,38.894851,-77.02324,active,POINT(-77.02324 38.894851),True,0.14006820709572707
201,National Archives,700 PENNSYLVANIA AVENUE NW,-77.02285696,38.89284625,293251,POINT(-77.02285696 38.89284625),76,10th St & Constitution Ave NW,42.0,31,38.893028,-77.026013,active,POINT(-77.026013 38.893028),True,0.17022217851544746
202,National Archives,700 PENNSYLVANIA AVENUE NW,-77.02285696,38.89284625,293251,POINT(-77.02285696 38.89284625),171,6th St & Indiana Ave NW,42.0,19,38.894573,-77.01994,active,POINT(-77.01994 38.894573),True,0.19712140332865008
203,National Archives,700 PENNSYLVANIA AVENUE NW,-77.02285696,38.89284625,293251,POINT(-77.02285696 38.89284625),199,10th & E St NW,42.0,15,38.895914000000005,-77.026064,active,POINT(-77.026064 38.895914),True,0.2733172943615221
204,National Archives,700 PENNSYLVANIA AVENUE NW,-77.02285696,38.89284625,293251,POINT(-77.02285696 38.89284625),105,7th & F St NW / National Portrait Gallery,42.0,27,38.89728304853854,-77.02219069004057,active,POINT(-77.0221906900406 38.8972830485385),True,0.3087062931619135
205,National Building Museum,401 F STREET NW,-77.01755124,38.89775511,242924,POINT(-77.01755124 38.89775511),82,5th & F St NW,42.0,31,38.897222,-77.019347,active,POINT(-77.019347 38.897222),True,0.10337295373051736
206,National Building Museum,401 F STREET NW,-77.01755124,38.89775511,242924,POINT(-77.01755124 38.89775511),55,3rd & H St NW,42.0,15,38.899408,-77.015289,active,POINT(-77.015289 38.899408),True,0.1668900284194399
207,National Building Museum,401 F STREET NW,-77.01755124,38.89775511,242924,POINT(-77.01755124 38.89775511),108,4th & D St NW / Judiciary Square,42.0,15,38.895344,-77.01610600000001,active,POINT(-77.016106 38.895344),True,0.18386721589479266
208,National Building Museum,401 F STREET NW,-77.01755124,38.89775511,242924,POINT(-77.01755124 38.89775511),207,5th St & Massachusetts Ave NW,42.0,19,38.900929999999995,-77.018677,active,POINT(-77.018677 38.90093),True,0.22761181640628406
209,National Building Museum,401 F STREET NW,-77.01755124,38.89775511,242924,POINT(-77.01755124 38.89775511),105,7th & F St NW / National Portrait Gallery,42.0,27,38.89728304853854,-77.02219069004057,active,POINT(-77.0221906900406 38.8972830485385),True,0.251655714673358
210,National Gallery of Art - East Building,,-77.016616,38.891206,293209,POINT(-77.016616 38.891206),408,4th St & Madison Dr NW,42.0,31,38.890493,-77.017253,active,POINT(-77.017253 38.890493),True,0.06001646169461095
211,National Gallery of Art - East Building,,-77.016616,38.891206,293209,POINT(-77.016616 38.891206),251,Constitution Ave & 2nd St NW/DOL,42.0,27,38.892275,-77.013917,active,POINT(-77.013917 38.892275),True,0.16289312929723335
212,National Gallery of Art - East Building,,-77.016616,38.891206,293209,POINT(-77.016616 38.891206),108,4th & D St NW / Judiciary Square,42.0,15,38.895344,-77.01610600000001,active,POINT(-77.016106 38.895344),True,0.2872824542547029
213,National Gallery of Art - East Building,,-77.016616,38.891206,293209,POINT(-77.016616 38.891206),171,6th St & Indiana Ave NW,42.0,19,38.894573,-77.01994,active,POINT(-77.01994 38.894573),True,0.29344533821225066
214,National Gallery of Art - East Building,,-77.016616,38.891206,293209,POINT(-77.016616 38.891206),252,Washington & Independence Ave SW/HHS,42.0,31,38.886978000000006,-77.013769,active,POINT(-77.013769 38.886978),True,0.3298904134702359
215,National Gallery of Art - West Building,,-77.019922,38.891299,293249,POINT(-77.019922 38.891299),408,4th St & Madison Dr NW,42.0,31,38.890493,-77.017253,active,POINT(-77.017253 38.890493),True,0.15399217542388646
216,National Gallery of Art - West Building,,-77.019922,38.891299,293249,POINT(-77.019922 38.891299),171,6th St & Indiana Ave NW,42.0,19,38.894573,-77.01994,active,POINT(-77.01994 38.894573),True,0.22626233329314505
217,National Gallery of Art - West Building,,-77.019922,38.891299,293249,POINT(-77.019922 38.891299),248,8th & D St NW,42.0,15,38.894851,-77.02324,active,POINT(-77.02324 38.894851),True,0.3034929664048372
218,National Gallery of Art - West Building,,-77.019922,38.891299,293249,POINT(-77.019922 38.891299),251,Constitution Ave & 2nd St NW/DOL,42.0,27,38.892275,-77.013917,active,POINT(-77.013917 38.892275),True,0.3299714453197111
219,National Gallery of Art - West Building,,-77.019922,38.891299,293249,POINT(-77.019922 38.891299),108,4th & D St NW / Judiciary Square,42.0,15,38.895344,-77.01610600000001,active,POINT(-77.016106 38.895344),True,0.3468051364296397
220,National Gallery of Art Sculpture Garden,,-77.022906,38.891253999999996,293258,POINT(-77.022906 38.891254),76,10th St & Constitution Ave NW,42.0,31,38.893028,-77.026013,active,POINT(-77.026013 38.893028),True,0.20726818207745706
221,National Gallery of Art Sculpture Garden,,-77.022906,38.891253999999996,293258,POINT(-77.022906 38.891254),248,8th & D St NW,42.0,15,38.894851,-77.02324,active,POINT(-77.02324 38.894851),True,0.2492305502454095
222,National Gallery of Art Sculpture Garden,,-77.022906,38.891253999999996,293258,POINT(-77.022906 38.891254),171,6th St & Indiana Ave NW,42.0,19,38.894573,-77.01994,active,POINT(-77.01994 38.894573),True,0.2793966256388943
223,National Gallery of Art Sculpture Garden,,-77.022906,38.891253999999996,293258,POINT(-77.022906 38.891254),408,4th St & Madison Dr NW,42.0,31,38.890493,-77.017253,active,POINT(-77.017253 38.890493),True,0.3085887679825409
224,National Gallery of Art Sculpture Garden,,-77.022906,38.891253999999996,293258,POINT(-77.022906 38.891254),253,Independence Ave & L'Enfant Plaza SW/DOE,42.0,15,38.887312,-77.025762,active,POINT(-77.025762 38.887312),True,0.312756305198424
225,National Geographic Museum,1145 17TH STREET NW,-77.03815314,38.90518966,290192,POINT(-77.03815314 38.90518966),136,Rhode Island & Connecticut Ave NW,42.0,23,38.90599569999115,-77.03980207443237,active,POINT(-77.0398020744324 38.9059956999911),True,0.10472180124853467
226,National Geographic Museum,1145 17TH STREET NW,-77.03815314,38.90518966,290192,POINT(-77.03815314 38.90518966),54,17th & K St NW,42.0,23,38.90276,-77.03863,active,POINT(-77.03863 38.90276),True,0.1698566243064752
227,National Geographic Museum,1145 17TH STREET NW,-77.03815314,38.90518966,290192,POINT(-77.03815314 38.90518966),483,15th & M St NW,42.0,19,38.905424,-77.034674,active,POINT(-77.034674 38.905424),True,0.18780411768481475
228,National Geographic Museum,1145 17TH STREET NW,-77.03815314,38.90518966,290192,POINT(-77.03815314 38.90518966),79,18th & M St NW,42.0,27,38.905066874553135,-77.04177886247633,active,POINT(-77.0417788624763 38.9050668745531),True,0.19517264770069603
229,National Geographic Museum,1145 17TH STREET NW,-77.03815314,38.90518966,290192,POINT(-77.03815314 38.90518966),229,17th St & Massachusetts Ave NW,42.0,19,38.908142,-77.038359,active,POINT(-77.038359 38.908142),True,0.2043310450181792
230,National Guard Memorial Museum,1 MASSACHUSETTS AVENUE NW,-77.00955916,38.89811835,238009,POINT(-77.00955916 38.89811835),114,North Capitol St & F St NW,42.0,23,38.897446,-77.009888,active,POINT(-77.009888 38.897446),True,0.04971721130003748
231,National Guard Memorial Museum,1 MASSACHUSETTS AVENUE NW,-77.00955916,38.89811835,238009,POINT(-77.00955916 38.89811835),310,North Capitol St & G Pl NE,42.0,19,38.899703,-77.008911,active,POINT(-77.008911 38.899703),True,0.11492694627495935
232,National Guard Memorial Museum,1 MASSACHUSETTS AVENUE NW,-77.00955916,38.89811835,238009,POINT(-77.00955916 38.89811835),546,New Jersey Ave & F St NW,42.0,33,38.897108,-77.011616,active,POINT(-77.011616 38.897108),True,0.13081891321190428
233,National Guard Memorial Museum,1 MASSACHUSETTS AVENUE NW,-77.00955916,38.89811835,238009,POINT(-77.00955916 38.89811835),319,1st & H St NW,42.0,15,38.900358000000004,-77.012108,active,POINT(-77.012108 38.900358),True,0.20675777369168372
234,National Guard Memorial Museum,1 MASSACHUSETTS AVENUE NW,-77.00955916,38.89811835,238009,POINT(-77.00955916 38.89811835),113,Columbus Circle / Union Station,42.0,55,38.89696,-77.00493,active,POINT(-77.00493 38.89696),True,0.26153130476277553
235,National Museum of African American History and Culture,1400 CONSTITUTION AVENUE NW,-77.03280325,38.89124508,310702,POINT(-77.03280325 38.89124508),488,15th St & Constitution Ave NW,42.0,19,38.892244,-77.033234,active,POINT(-77.033234 38.892244),True,0.0728180551335971
236,National Museum of African American History and Culture,1400 CONSTITUTION AVENUE NW,-77.03280325,38.89124508,310702,POINT(-77.03280325 38.89124508),168,Jefferson Dr & 14th St SW,42.0,23,38.888553,-77.03242900000001,active,POINT(-77.032429 38.888553),True,0.18713080015437397
237,National Museum of African American History and Culture,1400 CONSTITUTION AVENUE NW,-77.03280325,38.89124508,310702,POINT(-77.03280325 38.89124508),104,14th & D St NW / Ronald Reagan Building,42.0,25,38.894514,-77.031617,active,POINT(-77.031617 38.894514),True,0.2347471577931305
238,National Museum of African American History and Culture,1400 CONSTITUTION AVENUE NW,-77.03280325,38.89124508,310702,POINT(-77.03280325 38.89124508),169,Smithsonian-National Mall / Jefferson Dr & 12th St SW,42.0,35,38.888767,-77.02858,active,POINT(-77.02858 38.888767),True,0.28449103287945937
239,National Museum of African American History and Culture,1400 CONSTITUTION AVENUE NW,-77.03280325,38.89124508,310702,POINT(-77.03280325 38.89124508),501,15th St & Pennsylvania Ave NW,42.0,19,38.89646474748647,-77.0333808660507,active,POINT(-77.0333808660507 38.8964647474865),True,0.3620573299861173
240,National Museum of African Art,950 INDEPENDENCE AVENUE SW,-77.02550689,38.8879547,293262,POINT(-77.02550689 38.8879547),253,Independence Ave & L'Enfant Plaza SW/DOE,42.0,15,38.887312,-77.025762,active,POINT(-77.025762 38.887312),True,0.04648749230052463
241,National Museum of African Art,950 INDEPENDENCE AVENUE SW,-77.02550689,38.8879547,293262,POINT(-77.02550689 38.8879547),169,Smithsonian-National Mall / Jefferson Dr & 12th St SW,42.0,35,38.888767,-77.02858,active,POINT(-77.02858 38.888767),True,0.17457976039504194
242,National Museum of African Art,950 INDEPENDENCE AVENUE SW,-77.02550689,38.8879547,293262,POINT(-77.02550689 38.8879547),71,USDA / 12th & C St SW,42.0,39,38.886276945065106,-77.02824175357819,active,POINT(-77.0282417535782 38.8862769450651),True,0.1873144011386224
243,National Museum of African Art,950 INDEPENDENCE AVENUE SW,-77.02550689,38.8879547,293262,POINT(-77.02550689 38.8879547),75,L'Enfant Plaza / 7th & C St SW,42.0,15,38.886266,-77.02224100000001,active,POINT(-77.022241 38.886266),True,0.21091107057750855
244,National Museum of African Art,950 INDEPENDENCE AVENUE SW,-77.02550689,38.8879547,293262,POINT(-77.02550689 38.8879547),400,10th St & L'Enfant Plaza SW,42.0,23,38.88432272414662,-77.02601015567778,active,POINT(-77.0260101556778 38.8843227241466),True,0.2524551037988592
245,National Museum of American History,,-77.029989,38.891199,293200,POINT(-77.029989 38.891199),169,Smithsonian-National Mall / Jefferson Dr & 12th St SW,42.0,35,38.888767,-77.02858,active,POINT(-77.02858 38.888767),True,0.18436967163463613
246,National Museum of American History,,-77.029989,38.891199,293200,POINT(-77.029989 38.891199),488,15th St & Constitution Ave NW,42.0,19,38.892244,-77.033234,active,POINT(-77.033234 38.892244),True,0.18889627912874365
247,National Museum of American History,,-77.029989,38.891199,293200,POINT(-77.029989 38.891199),168,Jefferson Dr & 14th St SW,42.0,23,38.888553,-77.03242900000001,active,POINT(-77.032429 38.888553),True,0.22508719234708796
248,National Museum of American History,,-77.029989,38.891199,293200,POINT(-77.029989 38.891199),104,14th & D St NW / Ronald Reagan Building,42.0,25,38.894514,-77.031617,active,POINT(-77.031617 38.894514),True,0.2452590292094005
249,National Museum of American History,,-77.029989,38.891199,293200,POINT(-77.029989 38.891199),76,10th St & Constitution Ave NW,42.0,31,38.893028,-77.026013,active,POINT(-77.026013 38.893028),True,0.24842479843000204
250,National Museum of American Jewish Military History,1811 R STREET NW,-77.04211348,38.91281314,243292,POINT(-77.04211348 38.91281314),351,18th & R St NW,42.0,19,38.912648,-77.041834,active,POINT(-77.041834 38.912648),True,0.018870714051699128
251,National Museum of American Jewish Military History,1811 R STREET NW,-77.04211348,38.91281314,243292,POINT(-77.04211348 38.91281314),556,18th & New Hampshire Ave NW,42.0,19,38.911268,-77.041829,active,POINT(-77.041829 38.911268),True,0.10787205380096147
252,National Museum of American Jewish Military History,1811 R STREET NW,-77.04211348,38.91281314,243292,POINT(-77.04211348 38.91281314),485,Connecticut Ave & R St NW,42.0,19,38.912644,-77.04564,active,POINT(-77.04564 38.912644),True,0.18999268676120992
253,National Museum of American Jewish Military History,1811 R STREET NW,-77.04211348,38.91281314,243292,POINT(-77.04211348 38.91281314),59,17th & Corcoran St NW,42.0,19,38.9121,-77.0387,active,POINT(-77.0387 38.9121),True,0.1900560735687604
254,National Museum of American Jewish Military History,1811 R STREET NW,-77.04211348,38.91281314,243292,POINT(-77.04211348 38.91281314),46,20th St & Florida Ave NW,42.0,15,38.9154,-77.0446,active,POINT(-77.0446 38.9154),True,0.22324234083030586
255,National Museum of Natural History,NATIONAL MUSEUM OF NATURAL HISTORY,-77.02595438,38.89121662,293188,POINT(-77.02595438 38.89121662),76,10th St & Constitution Ave NW,42.0,31,38.893028,-77.026013,active,POINT(-77.026013 38.893028),True,0.12522092412439287
256,National Museum of Natural History,NATIONAL MUSEUM OF NATURAL HISTORY,-77.02595438,38.89121662,293188,POINT(-77.02595438 38.89121662),169,Smithsonian-National Mall / Jefferson Dr & 12th St SW,42.0,35,38.888767,-77.02858,active,POINT(-77.02858 38.888767),True,0.22046686247151415
257,National Museum of Natural History,NATIONAL MUSEUM OF NATURAL HISTORY,-77.02595438,38.89121662,293188,POINT(-77.02595438 38.89121662),253,Independence Ave & L'Enfant Plaza SW/DOE,42.0,15,38.887312,-77.025762,active,POINT(-77.025762 38.887312),True,0.2700396327172327
258,National Museum of Natural History,NATIONAL MUSEUM OF NATURAL HISTORY,-77.02595438,38.89121662,293188,POINT(-77.02595438 38.89121662),248,8th & D St NW,42.0,15,38.894851,-77.02324,active,POINT(-77.02324 38.894851),True,0.2905178440157555
259,National Museum of Natural History,NATIONAL MUSEUM OF NATURAL HISTORY,-77.02595438,38.89121662,293188,POINT(-77.02595438 38.89121662),199,10th & E St NW,42.0,15,38.895914000000005,-77.026064,active,POINT(-77.026064 38.895914),True,0.32468104035282896
260,National Museum of United States Navy,736 SICARD STREET SE,-76.99530404,38.87303544,311896,POINT(-76.99530404 38.87303544),275,Potomac Ave & 8th St SE,42.0,15,38.876737,-76.99446800000001,active,POINT(-76.994468 38.876737),True,0.2597326981137825
261,National Museum of United States Navy,736 SICARD STREET SE,-76.99530404,38.87303544,311896,POINT(-76.99530404 38.87303544),539,4th & M St SE,42.0,19,38.876751,-77.000736,active,POINT(-77.000736 38.876751),True,0.3890295476170671
262,National Museum of United States Navy,736 SICARD STREET SE,-76.99530404,38.87303544,311896,POINT(-76.99530404 38.87303544),273,3rd & Tingey St SE,42.0,19,38.875009999999996,-77.0024,active,POINT(-77.0024 38.87501),True,0.4054355464873205
263,National Museum of United States Navy,736 SICARD STREET SE,-76.99530404,38.87303544,311896,POINT(-76.99530404 38.87303544),62,8th & Eye St SE / Barracks Row,42.0,11,38.8792,-76.9953,active,POINT(-76.9953 38.8792),True,0.4260217291043401
264,National Museum of United States Navy,736 SICARD STREET SE,-76.99530404,38.87303544,311896,POINT(-76.99530404 38.87303544),49,M St & New Jersey Ave SE,42.0,17,38.8763,-77.0037,active,POINT(-77.0037 38.8763),True,0.5049263792085232
265,National Museum of Women in the Arts,1250 NEW YORK AVENUE NW,-77.02916139,38.90004902,279010,POINT(-77.02916139 38.90004902),91,13th St & New York Ave NW,42.0,23,38.900283,-77.029822,active,POINT(-77.029822 38.900283),True,0.03903603408336796
266,National Museum of Women in the Arts,1250 NEW YORK AVENUE NW,-77.02916139,38.90004902,279010,POINT(-77.02916139 38.90004902),103,Metro Center / 12th & G St NW,42.0,39,38.898364,-77.027869,active,POINT(-77.027869 38.898364),True,0.1356165697277748
267,National Museum of Women in the Arts,1250 NEW YORK AVENUE NW,-77.02916139,38.90004902,279010,POINT(-77.02916139 38.90004902),69,14th St & New York Ave NW,42.0,23,38.899632000000004,-77.031686,active,POINT(-77.031686 38.899632),True,0.13880614004881303
268,National Museum of Women in the Arts,1250 NEW YORK AVENUE NW,-77.02916139,38.90004902,279010,POINT(-77.02916139 38.90004902),125,11th & F St NW,42.0,15,38.897857,-77.026975,active,POINT(-77.026975 38.897857),True,0.19177104357268548
269,National Museum of Women in the Arts,1250 NEW YORK AVENUE NW,-77.02916139,38.90004902,279010,POINT(-77.02916139 38.90004902),334,10th & G St NW,42.0,23,38.89824328774852,-77.02623546123505,active,POINT(-77.026235461235 38.8982432877485),True,0.20084115638854336
270,National Museum of the American Indian,NATIONAL MUSEUM OF THE AMERICAN INDIAN,-77.01662957,38.88827538,294429,POINT(-77.01662957 38.88827538),142,4th & C St SW,42.0,39,38.88637194054526,-77.01770067214966,active,POINT(-77.0177006721497 38.8863719405453),True,0.14360847819231662
271,National Museum of the American Indian,NATIONAL MUSEUM OF THE AMERICAN INDIAN,-77.01662957,38.88827538,294429,POINT(-77.01662957 38.88827538),408,4th St & Madison Dr NW,42.0,31,38.890493,-77.017253,active,POINT(-77.017253 38.890493),True,0.156881844054379
272,National Museum of the American Indian,NATIONAL MUSEUM OF THE AMERICAN INDIAN,-77.01662957,38.88827538,294429,POINT(-77.01662957 38.88827538),252,Washington & Independence Ave SW/HHS,42.0,31,38.886978000000006,-77.013769,active,POINT(-77.013769 38.886978),True,0.17809243392477062
273,National Museum of the American Indian,NATIONAL MUSEUM OF THE AMERICAN INDIAN,-77.01662957,38.88827538,294429,POINT(-77.01662957 38.88827538),143,4th & E St SW,42.0,19,38.88412,-77.017445,active,POINT(-77.017445 38.88412),True,0.29050166447105435
274,National Museum of the American Indian,NATIONAL MUSEUM OF THE AMERICAN INDIAN,-77.01662957,38.88827538,294429,POINT(-77.01662957 38.88827538),251,Constitution Ave & 2nd St NW/DOL,42.0,27,38.892275,-77.013917,active,POINT(-77.013917 38.892275),True,0.31255454010588746
275,National Portrait Gallery,,-77.022972,38.898181,294248,POINT(-77.022972 38.898181),105,7th & F St NW / National Portrait Gallery,42.0,27,38.89728304853854,-77.02219069004057,active,POINT(-77.0221906900406 38.8972830485385),True,0.0749454241260442
276,National Portrait Gallery,,-77.022972,38.898181,294248,POINT(-77.022972 38.898181),92,8th & H St NW,42.0,33,38.8997,-77.02308599999999,active,POINT(-77.023086 38.8997),True,0.10515426888424324
277,National Portrait Gallery,,-77.022972,38.898181,294248,POINT(-77.022972 38.898181),334,10th & G St NW,42.0,23,38.89824328774852,-77.02623546123505,active,POINT(-77.026235461235 38.8982432877485),True,0.1755758872827351
278,National Portrait Gallery,,-77.022972,38.898181,294248,POINT(-77.022972 38.898181),82,5th & F St NW,42.0,31,38.897222,-77.019347,active,POINT(-77.019347 38.897222),True,0.2059259684928996
279,National Portrait Gallery,,-77.022972,38.898181,294248,POINT(-77.022972 38.898181),125,11th & F St NW,42.0,15,38.897857,-77.026975,active,POINT(-77.026975 38.897857),True,0.21646050208627213
280,National Postal Museum,2 MASSACHUSETTS AVENUE NE,-77.00818895,38.89813891,293217,POINT(-77.00818895 38.89813891),114,North Capitol St & F St NW,42.0,23,38.897446,-77.009888,active,POINT(-77.009888 38.897446),True,0.10316911936242247
281,National Postal Museum,2 MASSACHUSETTS AVENUE NE,-77.00818895,38.89813891,293217,POINT(-77.00818895 38.89813891),310,North Capitol St & G Pl NE,42.0,19,38.899703,-77.008911,active,POINT(-77.008911 38.899703),True,0.11485594348861965
282,National Postal Museum,2 MASSACHUSETTS AVENUE NE,-77.00818895,38.89813891,293217,POINT(-77.00818895 38.89813891),113,Columbus Circle / Union Station,42.0,55,38.89696,-77.00493,active,POINT(-77.00493 38.89696),True,0.1932913956977238
283,National Postal Museum,2 MASSACHUSETTS AVENUE NE,-77.00818895,38.89813891,293217,POINT(-77.00818895 38.89813891),546,New Jersey Ave & F St NW,42.0,33,38.897108,-77.011616,active,POINT(-77.011616 38.897108),True,0.19761270388688906
284,National Postal Museum,2 MASSACHUSETTS AVENUE NE,-77.00818895,38.89813891,293217,POINT(-77.00818895 38.89813891),319,1st & H St NW,42.0,15,38.900358000000004,-77.012108,active,POINT(-77.012108 38.900358),True,0.26066619519401
285,National Zoo,3001 CONNECTICUT AVENUE NW,-77.05442859,38.93061121,293230,POINT(-77.05442859 38.93061121),151,3000 Connecticut Ave NW / National Zoo,42.0,15,38.930282,-77.055599,active,POINT(-77.055599 38.930282),True,0.06690802396563117
286,National Zoo,3001 CONNECTICUT AVENUE NW,-77.05442859,38.93061121,293230,POINT(-77.05442859 38.93061121),35,Connecticut Ave & Newark St NW / Cleveland Park,42.0,11,38.934267,-77.057979,active,POINT(-77.057979 38.934267),True,0.3166366260290911
287,National Zoo,3001 CONNECTICUT AVENUE NW,-77.05442859,38.93061121,293230,POINT(-77.05442859 38.93061121),549,Woodley Park Metro / Calvert St & Connecticut Ave NW,42.0,23,38.923389,-77.051833,active,POINT(-77.051833 38.923389),True,0.5182544681547079
288,National Zoo,3001 CONNECTICUT AVENUE NW,-77.05442859,38.93061121,293230,POINT(-77.05442859 38.93061121),301,Calvert St & Woodley Pl NW,42.0,19,38.923583,-77.050046,active,POINT(-77.050046 38.923583),True,0.5398402412383045
289,National Zoo,3001 CONNECTICUT AVENUE NW,-77.05442859,38.93061121,293230,POINT(-77.05442859 38.93061121),85,Harvard St & Adams Mill Rd NW,42.0,15,38.927872,-77.043358,active,POINT(-77.043358 38.927872),True,0.624544261667234
290,Naval Heritage Center,701 PENNSYLVANIA AVENUE NW,-77.02238001,38.89443849,279889,POINT(-77.02238001 38.89443849),248,8th & D St NW,42.0,15,38.894851,-77.02324,active,POINT(-77.02324 38.894851),True,0.05433546859556308
291,Naval Heritage Center,701 PENNSYLVANIA AVENUE NW,-77.02238001,38.89443849,279889,POINT(-77.02238001 38.89443849),171,6th St & Indiana Ave NW,42.0,19,38.894573,-77.01994,active,POINT(-77.01994 38.894573),True,0.13156997345713353
292,Naval Heritage Center,701 PENNSYLVANIA AVENUE NW,-77.02238001,38.89443849,279889,POINT(-77.02238001 38.89443849),105,7th & F St NW / National Portrait Gallery,42.0,27,38.89728304853854,-77.02219069004057,active,POINT(-77.0221906900406 38.8972830485385),True,0.19684588631125172
293,Naval Heritage Center,701 PENNSYLVANIA AVENUE NW,-77.02238001,38.89443849,279889,POINT(-77.02238001 38.89443849),76,10th St & Constitution Ave NW,42.0,31,38.893028,-77.026013,active,POINT(-77.026013 38.893028),True,0.2183731634924892
294,Naval Heritage Center,701 PENNSYLVANIA AVENUE NW,-77.02238001,38.89443849,279889,POINT(-77.02238001 38.89443849),199,10th & E St NW,42.0,15,38.895914000000005,-77.026064,active,POINT(-77.026064 38.895914),True,0.22284759826371747
295,Newseum,555 PENNSYLVANIA AVENUE NW,-77.01935005,38.893124799999995,297641,POINT(-77.01935005 38.8931248),171,6th St & Indiana Ave NW,42.0,19,38.894573,-77.01994,active,POINT(-77.01994 38.894573),True,0.10499251576091513
296,Newseum,555 PENNSYLVANIA AVENUE NW,-77.01935005,38.893124799999995,297641,POINT(-77.01935005 38.8931248),408,4th St & Madison Dr NW,42.0,31,38.890493,-77.017253,active,POINT(-77.017253 38.890493),True,0.21401749878258033
297,Newseum,555 PENNSYLVANIA AVENUE NW,-77.01935005,38.893124799999995,297641,POINT(-77.01935005 38.8931248),108,4th & D St NW / Judiciary Square,42.0,15,38.895344,-77.01610600000001,active,POINT(-77.016106 38.895344),True,0.23230833967967499
298,Newseum,555 PENNSYLVANIA AVENUE NW,-77.01935005,38.893124799999995,297641,POINT(-77.01935005 38.8931248),248,8th & D St NW,42.0,15,38.894851,-77.02324,active,POINT(-77.02324 38.894851),True,0.24085004180238045
299,Newseum,555 PENNSYLVANIA AVENUE NW,-77.01935005,38.893124799999995,297641,POINT(-77.01935005 38.8931248),82,5th & F St NW,42.0,31,38.897222,-77.019347,active,POINT(-77.019347 38.897222),True,0.28315018334884073
300,O Street Museum,2020 O STREET NW,-77.04592519,38.90838357,243057,POINT(-77.04592519 38.90838357),107,20th & O St NW / Dupont South,42.0,19,38.908905,-77.04478,active,POINT(-77.04478 38.908905),True,0.07135226966914283
301,O Street Museum,2020 O STREET NW,-77.04592519,38.90838357,243057,POINT(-77.04592519 38.90838357),51,Massachusetts Ave & Dupont Circle NW,42.0,45,38.9101,-77.0444,active,POINT(-77.0444 38.9101),True,0.1442137688469386
302,O Street Museum,2020 O STREET NW,-77.04592519,38.90838357,243057,POINT(-77.04592519 38.90838357),394,22nd & P ST NW,42.0,19,38.909394,-77.048728,active,POINT(-77.048728 38.909394),True,0.16611442155544273
303,O Street Museum,2020 O STREET NW,-77.04592519,38.90838357,243057,POINT(-77.04592519 38.90838357),53,New Hampshire Ave & Ward Pl NW,42.0,19,38.90571079190728,-77.04731762409209,active,POINT(-77.0473176240921 38.9057107919073),True,0.19931232645099167
304,O Street Museum,2020 O STREET NW,-77.04592519,38.90838357,243057,POINT(-77.04592519 38.90838357),485,Connecticut Ave & R St NW,42.0,19,38.912644,-77.04564,active,POINT(-77.04564 38.912644),True,0.29482980550763355
305,Octagon House,1799 NEW YORK AVENUE NW,-77.04141591,38.8963463,218490,POINT(-77.04141591 38.8963463),41,19th & E Street NW,42.0,11,38.8952,-77.0436,active,POINT(-77.0436 38.8952),True,0.14168881185997007
306,Octagon House,1799 NEW YORK AVENUE NW,-77.04141591,38.8963463,218490,POINT(-77.04141591 38.8963463),349,17th & G St NW,42.0,31,38.89829964921176,-77.03973233699799,active,POINT(-77.039732336998 38.8982996492118),True,0.16254982828058007
307,Octagon House,1799 NEW YORK AVENUE NW,-77.04141591,38.8963463,218490,POINT(-77.04141591 38.8963463),357,19th & G St NW,42.0,23,38.898412,-77.043182,active,POINT(-77.043182 38.898412),True,0.17147139240521878
308,Octagon House,1799 NEW YORK AVENUE NW,-77.04141591,38.8963463,218490,POINT(-77.04141591 38.8963463),26,20th & E St NW,42.0,15,38.8963,-77.045,active,POINT(-77.045 38.8963),True,0.19279959907024272
309,Octagon House,1799 NEW YORK AVENUE NW,-77.04141591,38.8963463,218490,POINT(-77.04141591 38.8963463),393,18th & C St NW,42.0,19,38.893511,-77.04154399999999,active,POINT(-77.041544 38.893511),True,0.19606357723045026
310,Petersen House,516 10TH STREET NW,-77.02619882,38.89676807,239374,POINT(-77.02619882 38.89676807),199,10th & E St NW,42.0,15,38.895914000000005,-77.026064,active,POINT(-77.026064 38.895914),True,0.05946701698369919
311,Petersen House,516 10TH STREET NW,-77.02619882,38.89676807,239374,POINT(-77.02619882 38.89676807),125,11th & F St NW,42.0,15,38.897857,-77.026975,active,POINT(-77.026975 38.897857),True,0.0860579124553147
312,Petersen House,516 10TH STREET NW,-77.02619882,38.89676807,239374,POINT(-77.02619882 38.89676807),334,10th & G St NW,42.0,23,38.89824328774852,-77.02623546123505,active,POINT(-77.026235461235 38.8982432877485),True,0.101968695992917
313,Petersen House,516 10TH STREET NW,-77.02619882,38.89676807,239374,POINT(-77.02619882 38.89676807),103,Metro Center / 12th & G St NW,42.0,39,38.898364,-77.027869,active,POINT(-77.027869 38.898364),True,0.1422455098887376
314,Petersen House,516 10TH STREET NW,-77.02619882,38.89676807,239374,POINT(-77.02619882 38.89676807),248,8th & D St NW,42.0,15,38.894851,-77.02324,active,POINT(-77.02324 38.894851),True,0.20707250115645734
315,Powhatan Museum,1519 MONROE STREET NW,-77.0355043,38.93243069,234557,POINT(-77.0355043 38.93243069),532,14th & Newton St NW,42.0,19,38.931991,-77.032956,active,POINT(-77.032956 38.931991),True,0.14032248596445335
316,Powhatan Museum,1519 MONROE STREET NW,-77.0355043,38.93243069,234557,POINT(-77.0355043 38.93243069),21,Lamont & Mt Pleasant NW,42.0,19,38.9319,-77.0388,active,POINT(-77.0388 38.9319),True,0.18092835818007694
317,Powhatan Museum,1519 MONROE STREET NW,-77.0355043,38.93243069,234557,POINT(-77.0355043 38.93243069),591,14th & Otis Pl NW,42.0,19,38.934405,-77.032687,active,POINT(-77.032687 38.934405),True,0.20384724734426296
318,Powhatan Museum,1519 MONROE STREET NW,-77.0355043,38.93243069,234557,POINT(-77.0355043 38.93243069),33,Park Rd & Holmead Pl NW,42.0,19,38.9308,-77.0315,active,POINT(-77.0315 38.9308),True,0.24298139437847016
319,Powhatan Museum,1519 MONROE STREET NW,-77.0355043,38.93243069,234557,POINT(-77.0355043 38.93243069),386,16th & Irving St NW,42.0,19,38.928893,-77.03625,active,POINT(-77.03625 38.928893),True,0.2477483294860239
320,Renwick Gallery,1661 PENNSYLVANIA AVENUE NW,-77.03908805,38.89913087,294185,POINT(-77.03908805 38.89913087),349,17th & G St NW,42.0,31,38.89829964921176,-77.03973233699799,active,POINT(-77.039732336998 38.8982996492118),True,0.06708662833222095
321,Renwick Gallery,1661 PENNSYLVANIA AVENUE NW,-77.03908805,38.89913087,294185,POINT(-77.03908805 38.89913087),141,18th St & Pennsylvania Ave NW,42.0,27,38.89968,-77.041539,active,POINT(-77.041539 38.89968),True,0.13717435718748114
322,Renwick Gallery,1661 PENNSYLVANIA AVENUE NW,-77.03908805,38.89913087,294185,POINT(-77.03908805 38.89913087),14,19th St & Pennsylvania Ave NW,42.0,15,38.9003,-77.0429,active,POINT(-77.0429 38.9003),True,0.22036517573932526
323,Renwick Gallery,1661 PENNSYLVANIA AVENUE NW,-77.03908805,38.89913087,294185,POINT(-77.03908805 38.89913087),357,19th & G St NW,42.0,23,38.898412,-77.043182,active,POINT(-77.043182 38.898412),True,0.22572357776627094
324,Renwick Gallery,1661 PENNSYLVANIA AVENUE NW,-77.03908805,38.89913087,294185,POINT(-77.03908805 38.89913087),54,17th & K St NW,42.0,23,38.90276,-77.03863,active,POINT(-77.03863 38.90276),True,0.25200963317639
325,Rock Creek Park Nature Center and Planetarium,5200 GLOVER ROAD NW,-77.05168557,38.95991748,308551,POINT(-77.05168557 38.95991748),218,14th St & Colorado Ave NW,42.0,19,38.956432,-77.032947,active,POINT(-77.032947 38.956432),True,1.0353984128678153
326,Rock Creek Park Nature Center and Planetarium,5200 GLOVER ROAD NW,-77.05168557,38.95991748,308551,POINT(-77.05168557 38.95991748),228,Connecticut & Nebraska Ave NW,42.0,23,38.955016,-77.069956,active,POINT(-77.069956 38.955016),True,1.038631057239641
327,Rock Creek Park Nature Center and Planetarium,5200 GLOVER ROAD NW,-77.05168557,38.95991748,308551,POINT(-77.05168557 38.95991748),401,Connecticut Ave & Yuma St NW,42.0,19,38.947156,-77.065115,active,POINT(-77.065115 38.947156),True,1.1395974176851786
328,Rock Creek Park Nature Center and Planetarium,5200 GLOVER ROAD NW,-77.05168557,38.95991748,308551,POINT(-77.05168557 38.95991748),534,14th & Luzon St NW,42.0,19,38.969489,-77.033509,active,POINT(-77.033509 38.969489),True,1.179611735050208
329,Rock Creek Park Nature Center and Planetarium,5200 GLOVER ROAD NW,-77.05168557,38.95991748,308551,POINT(-77.05168557 38.95991748),60,Van Ness Metro / UDC,42.0,15,38.944551000000004,-77.063896,active,POINT(-77.063896 38.944551),True,1.2483490368014598
330,S. Dillon Ripley Center,1100 JEFFERSON DRIVE SW,-77.02687494,38.88855849,308882,POINT(-77.02687494 38.88855849),169,Smithsonian-National Mall / Jefferson Dr & 12th St SW,42.0,35,38.888767,-77.02858,active,POINT(-77.02858 38.888767),True,0.0928429137456409
331,S. Dillon Ripley Center,1100 JEFFERSON DRIVE SW,-77.02687494,38.88855849,308882,POINT(-77.02687494 38.88855849),253,Independence Ave & L'Enfant Plaza SW/DOE,42.0,15,38.887312,-77.025762,active,POINT(-77.025762 38.887312),True,0.10490313941874556
332,S. Dillon Ripley Center,1100 JEFFERSON DRIVE SW,-77.02687494,38.88855849,308882,POINT(-77.02687494 38.88855849),71,USDA / 12th & C St SW,42.0,39,38.886276945065106,-77.02824175357819,active,POINT(-77.0282417535782 38.8862769450651),True,0.1739734264785162
333,S. Dillon Ripley Center,1100 JEFFERSON DRIVE SW,-77.02687494,38.88855849,308882,POINT(-77.02687494 38.88855849),75,L'Enfant Plaza / 7th & C St SW,42.0,15,38.886266,-77.02224100000001,active,POINT(-77.022241 38.886266),True,0.2953577635091167
334,S. Dillon Ripley Center,1100 JEFFERSON DRIVE SW,-77.02687494,38.88855849,308882,POINT(-77.02687494 38.88855849),400,10th St & L'Enfant Plaza SW,42.0,23,38.88432272414662,-77.02601015567778,active,POINT(-77.0260101556778 38.8843227241466),True,0.2963995315253129
335,Sewall-Belmont,144 CONSTITUTION AVENUE NE,-77.00375617,38.89218722,286201,POINT(-77.00375617 38.89218722),402,2nd St & Massachusetts Ave NE,42.0,23,38.894971999999996,-77.003135,active,POINT(-77.003135 38.894972),True,0.19532988794622005
336,Sewall-Belmont,144 CONSTITUTION AVENUE NE,-77.00375617,38.89218722,286201,POINT(-77.00375617 38.89218722),98,4th & East Capitol St NE,42.0,11,38.889955,-77.000349,active,POINT(-77.000349 38.889955),True,0.239553325857342
337,Sewall-Belmont,144 CONSTITUTION AVENUE NE,-77.00375617,38.89218722,286201,POINT(-77.00375617 38.89218722),548,Massachusetts Ave & 6th St NE,42.0,19,38.892934000000004,-76.998273,active,POINT(-76.998273 38.892934),True,0.2994134687244142
338,Sewall-Belmont,144 CONSTITUTION AVENUE NE,-77.00375617,38.89218722,286201,POINT(-77.00375617 38.89218722),113,Columbus Circle / Union Station,42.0,55,38.89696,-77.00493,active,POINT(-77.00493 38.89696),True,0.3358266586517825
339,Sewall-Belmont,144 CONSTITUTION AVENUE NE,-77.00375617,38.89218722,286201,POINT(-77.00375617 38.89218722),247,3rd St & Pennsylvania Ave SE,42.0,15,38.887378000000005,-77.00195500000001,active,POINT(-77.001955 38.887378),True,0.34619044786111114
340,Smithsonian American Art Museum,,-77.022972,38.898181,294248,POINT(-77.022972 38.898181),105,7th & F St NW / National Portrait Gallery,42.0,27,38.89728304853854,-77.02219069004057,active,POINT(-77.0221906900406 38.8972830485385),True,0.0749454241260442
341,Smithsonian American Art Museum,,-77.022972,38.898181,294248,POINT(-77.022972 38.898181),92,8th & H St NW,42.0,33,38.8997,-77.02308599999999,active,POINT(-77.023086 38.8997),True,0.10515426888424324
342,Smithsonian American Art Museum,,-77.022972,38.898181,294248,POINT(-77.022972 38.898181),334,10th & G St NW,42.0,23,38.89824328774852,-77.02623546123505,active,POINT(-77.026235461235 38.8982432877485),True,0.1755758872827351
343,Smithsonian American Art Museum,,-77.022972,38.898181,294248,POINT(-77.022972 38.898181),82,5th & F St NW,42.0,31,38.897222,-77.019347,active,POINT(-77.019347 38.897222),True,0.2059259684928996
344,Smithsonian American Art Museum,,-77.022972,38.898181,294248,POINT(-77.022972 38.898181),125,11th & F St NW,42.0,15,38.897857,-77.026975,active,POINT(-77.026975 38.897857),True,0.21646050208627213
345,Smithsonian Castle,1000 JEFFERSON DRIVE SW,-77.02598796,38.88880868,293187,POINT(-77.02598796 38.88880868),253,Independence Ave & L'Enfant Plaza SW/DOE,42.0,15,38.887312,-77.025762,active,POINT(-77.025762 38.887312),True,0.1041446033660486
346,Smithsonian Castle,1000 JEFFERSON DRIVE SW,-77.02598796,38.88880868,293187,POINT(-77.02598796 38.88880868),169,Smithsonian-National Mall / Jefferson Dr & 12th St SW,42.0,35,38.888767,-77.02858,active,POINT(-77.02858 38.888767),True,0.13945941261097206
347,Smithsonian Castle,1000 JEFFERSON DRIVE SW,-77.02598796,38.88880868,293187,POINT(-77.02598796 38.88880868),71,USDA / 12th & C St SW,42.0,39,38.886276945065106,-77.02824175357819,active,POINT(-77.0282417535782 38.8862769450651),True,0.21286308770452347
348,Smithsonian Castle,1000 JEFFERSON DRIVE SW,-77.02598796,38.88880868,293187,POINT(-77.02598796 38.88880868),75,L'Enfant Plaza / 7th & C St SW,42.0,15,38.886266,-77.02224100000001,active,POINT(-77.022241 38.886266),True,0.2674008027609098
349,Smithsonian Castle,1000 JEFFERSON DRIVE SW,-77.02598796,38.88880868,293187,POINT(-77.02598796 38.88880868),76,10th St & Constitution Ave NW,42.0,31,38.893028,-77.026013,active,POINT(-77.026013 38.893028),True,0.2915927405206406
350,Spagnuolo Art Gallery,1221 36TH STREET NW,-77.07011468,38.90631079999999,300017,POINT(-77.07011468 38.9063108),110,37th & O St NW / Georgetown University,42.0,23,38.907740000000004,-77.071652,active,POINT(-77.071652 38.90774),True,0.12880336863516326
351,Spagnuolo Art Gallery,1221 36TH STREET NW,-77.07011468,38.90631079999999,300017,POINT(-77.07011468 38.9063108),330,34th & Water St NW,42.0,19,38.90366269005048,-77.0676684380669,active,POINT(-77.0676684380669 38.9036626900505),True,0.22538516912493914
352,Spagnuolo Art Gallery,1221 36TH STREET NW,-77.07011468,38.90631079999999,300017,POINT(-77.07011468 38.9063108),473,Potomac & M St NW,42.0,19,38.905368,-77.065149,active,POINT(-77.065149 38.905368),True,0.27488065702466397
353,Spagnuolo Art Gallery,1221 36TH STREET NW,-77.07011468,38.90631079999999,300017,POINT(-77.07011468 38.9063108),226,Wisconsin Ave & O St NW,42.0,19,38.90849,-77.063586,active,POINT(-77.063586 38.90849),True,0.3820320123478651
354,Spagnuolo Art Gallery,1221 36TH STREET NW,-77.07011468,38.90631079999999,300017,POINT(-77.07011468 38.9063108),87,C & O Canal & Wisconsin Ave NW,42.0,23,38.90375,-77.06269,active,POINT(-77.06269 38.90375),True,0.43675419980503
355,The History of Cannabis  ,3626 GEORGIA AVENUE NW,-77.02433,38.934824,232148,POINT(-77.02433 38.934824),28,Georgia & New Hampshire Ave NW,42.0,19,38.9366839345886,-77.02418088912965,active,POINT(-77.0241808891296 38.9366839345886),True,0.12878642476038835
356,The History of Cannabis  ,3626 GEORGIA AVENUE NW,-77.02433,38.934824,232148,POINT(-77.02433 38.934824),583,Georgia Ave & Morton St NW,42.0,19,38.932128000000006,-77.0235,active,POINT(-77.0235 38.932128),True,0.19158389025254205
357,The History of Cannabis  ,3626 GEORGIA AVENUE NW,-77.02433,38.934824,232148,POINT(-77.02433 38.934824),538,11th & Park Rd NW,42.0,19,38.93132185874559,-77.0282471179962,active,POINT(-77.0282471179962 38.9313218587456),True,0.32081027651939786
358,The History of Cannabis  ,3626 GEORGIA AVENUE NW,-77.02433,38.934824,232148,POINT(-77.02433 38.934824),16,11th & Kenyon St NW,42.0,27,38.929464,-77.027822,active,POINT(-77.027822 38.929464),True,0.4152730278037047
359,The History of Cannabis  ,3626 GEORGIA AVENUE NW,-77.02433,38.934824,232148,POINT(-77.02433 38.934824),591,14th & Otis Pl NW,42.0,19,38.934405,-77.032687,active,POINT(-77.032687 38.934405),True,0.4501774650269231
360,The National Bonsai and Penjing Museum,3501 NEW YORK AVENUE NE,-76.96989039,38.9124031,293238,POINT(-76.96989039 38.9124031),421,24th & R St NE / National Arboretum,42.0,19,38.91263,-76.971923,active,POINT(-76.971923 38.91263),True,0.11041963662745284
361,The National Bonsai and Penjing Museum,3501 NEW YORK AVENUE NE,-76.96989039,38.9124031,293238,POINT(-76.96989039 38.9124031),375,New York Ave & Hecht Ave NE,42.0,23,38.915603999999995,-76.983683,active,POINT(-76.983683 38.915604),True,0.7739475927305945
362,The National Bonsai and Penjing Museum,3501 NEW YORK AVENUE NE,-76.96989039,38.9124031,293238,POINT(-76.96989039 38.9124031),551,Trinidad Rec Center,42.0,19,38.906299,-76.983221,active,POINT(-76.983221 38.906299),True,0.8317740825067763
363,The National Bonsai and Penjing Museum,3501 NEW YORK AVENUE NE,-76.96989039,38.9124031,293238,POINT(-76.96989039 38.9124031),547,Maryland Ave & 17th St NE,42.0,19,38.901934999999995,-76.978627,active,POINT(-76.978627 38.901935),True,0.8626104706889586
364,The National Bonsai and Penjing Museum,3501 NEW YORK AVENUE NE,-76.96989039,38.9124031,293238,POINT(-76.96989039 38.9124031),633,Capitol Ave & Kendall St NE,,19,38.910993,-76.985854,active,POINT(-76.985854 38.910993),True,0.863942721469347
365,The Phillips Collection,1600 21ST STREET NW,-77.04685225,38.91150234,243333,POINT(-77.04685225 38.91150234),485,Connecticut Ave & R St NW,42.0,19,38.912644,-77.04564,active,POINT(-77.04564 38.912644),True,0.10234400338545974
366,The Phillips Collection,1600 21ST STREET NW,-77.04685225,38.91150234,243333,POINT(-77.04685225 38.91150234),51,Massachusetts Ave & Dupont Circle NW,42.0,45,38.9101,-77.0444,active,POINT(-77.0444 38.9101),True,0.16365106550396508
367,The Phillips Collection,1600 21ST STREET NW,-77.04685225,38.91150234,243333,POINT(-77.04685225 38.91150234),394,22nd & P ST NW,42.0,19,38.909394,-77.048728,active,POINT(-77.048728 38.909394),True,0.17721176451725162
368,The Phillips Collection,1600 21ST STREET NW,-77.04685225,38.91150234,243333,POINT(-77.04685225 38.91150234),107,20th & O St NW / Dupont South,42.0,19,38.908905,-77.04478,active,POINT(-77.04478 38.908905),True,0.2112753804099695
369,The Phillips Collection,1600 21ST STREET NW,-77.04685225,38.91150234,243333,POINT(-77.04685225 38.91150234),556,18th & New Hampshire Ave NW,42.0,19,38.911268,-77.041829,active,POINT(-77.041829 38.911268),True,0.2706070991059038
370,The Saint John Paul II National Shrine,3900 HAREWOOD ROAD NE,-77.00466482,38.93775908,288031,POINT(-77.00466482 38.93775908),592,John McCormack Rd NE,42.0,19,38.938889,-76.997226,active,POINT(-76.997226 38.938889),True,0.4074190792401953
371,The Saint John Paul II National Shrine,3900 HAREWOOD ROAD NE,-77.00466482,38.93775908,288031,POINT(-77.00466482 38.93775908),30,John McCormack Dr & Michigan Ave NE,42.0,11,38.9346,-76.9955,active,POINT(-76.9955 38.9346),True,0.5388663292291926
372,The Saint John Paul II National Shrine,3900 HAREWOOD ROAD NE,-77.00466482,38.93775908,288031,POINT(-77.00466482 38.93775908),93,10th & Monroe St NE,42.0,15,38.932514000000005,-76.992889,active,POINT(-76.992889 38.932514),True,0.7294596083254042
373,The Saint John Paul II National Shrine,3900 HAREWOOD ROAD NE,-77.00466482,38.93775908,288031,POINT(-77.00466482 38.93775908),164,1st & Washington Hospital Center NW,42.0,15,38.928743,-77.012457,active,POINT(-77.012457 38.928743),True,0.7508023742043005
374,The Saint John Paul II National Shrine,3900 HAREWOOD ROAD NE,-77.00466482,38.93775908,288031,POINT(-77.00466482 38.93775908),590,Grant Circle,42.0,19,38.942024743273045,-77.01822102069855,active,POINT(-77.0182210206985 38.9420247432731),True,0.7860545118816638
375,The Textile Museum,701 21ST STREET NW,-77.04641484,38.89879551,311648,POINT(-77.04641484 38.89879551),609,22nd & H St NW,42.0,17,38.89892546716841,-77.04885238395946,active,POINT(-77.0488523839595 38.8989254671684),True,0.13140776578803165
376,The Textile Museum,701 21ST STREET NW,-77.04641484,38.89879551,311648,POINT(-77.04641484 38.89879551),27,21st & I St NW,42.0,35,38.90071062547464,-77.04644858837126,active,POINT(-77.0464485883713 38.9007106254746),True,0.13236263784415667
377,The Textile Museum,701 21ST STREET NW,-77.04641484,38.89879551,311648,POINT(-77.04641484 38.89879551),357,19th & G St NW,42.0,23,38.898412,-77.043182,active,POINT(-77.043182 38.898412),True,0.1758835807659792
378,The Textile Museum,701 21ST STREET NW,-77.04641484,38.89879551,311648,POINT(-77.04641484 38.89879551),26,20th & E St NW,42.0,15,38.8963,-77.045,active,POINT(-77.045 38.8963),True,0.18850270975634809
379,The Textile Museum,701 21ST STREET NW,-77.04641484,38.89879551,311648,POINT(-77.04641484 38.89879551),187,21st St & Pennsylvania Ave NW,42.0,19,38.901539,-77.046564,active,POINT(-77.046564 38.901539),True,0.18976731094490487
380,The Wilderness Society - Ansel Adams Collection,1615 M STREET NW,-77.03735337,38.90585437,301103,POINT(-77.03735337 38.90585437),136,Rhode Island & Connecticut Ave NW,42.0,23,38.90599569999115,-77.03980207443237,active,POINT(-77.0398020744324 38.9059956999911),True,0.13204935493388828
381,The Wilderness Society - Ansel Adams Collection,1615 M STREET NW,-77.03735337,38.90585437,301103,POINT(-77.03735337 38.90585437),483,15th & M St NW,42.0,19,38.905424,-77.034674,active,POINT(-77.034674 38.905424),True,0.14713057798521353
382,The Wilderness Society - Ansel Adams Collection,1615 M STREET NW,-77.03735337,38.90585437,301103,POINT(-77.03735337 38.90585437),229,17th St & Massachusetts Ave NW,42.0,19,38.908142,-77.038359,active,POINT(-77.038359 38.908142),True,0.1670880276910648
383,The Wilderness Society - Ansel Adams Collection,1615 M STREET NW,-77.03735337,38.90585437,301103,POINT(-77.03735337 38.90585437),348,15th & L St NW,42.0,23,38.903659999999995,-77.034846,active,POINT(-77.034846 38.90366),True,0.20292987405241286
384,The Wilderness Society - Ansel Adams Collection,1615 M STREET NW,-77.03735337,38.90585437,301103,POINT(-77.03735337 38.90585437),54,17th & K St NW,42.0,23,38.90276,-77.03863,active,POINT(-77.03863 38.90276),True,0.22459746440105444
385,Tudor Place,1644 31ST STREET NW,-77.06298578,38.9114871,297689,POINT(-77.06298578 38.9114871),226,Wisconsin Ave & O St NW,42.0,19,38.90849,-77.063586,active,POINT(-77.063586 38.90849),True,0.20962405463546985
386,Tudor Place,1644 31ST STREET NW,-77.06298578,38.9114871,297689,POINT(-77.06298578 38.9114871),473,Potomac & M St NW,42.0,19,38.905368,-77.065149,active,POINT(-77.065149 38.905368),True,0.4385890110313623
387,Tudor Place,1644 31ST STREET NW,-77.06298578,38.9114871,297689,POINT(-77.06298578 38.9114871),90,34th St & Wisconsin Ave NW,42.0,11,38.916441999999996,-77.0682,active,POINT(-77.0682 38.916442),True,0.4425697230524703
388,Tudor Place,1644 31ST STREET NW,-77.06298578,38.9114871,297689,POINT(-77.06298578 38.9114871),110,37th & O St NW / Georgetown University,42.0,23,38.907740000000004,-77.071652,active,POINT(-77.071652 38.90774),True,0.5331451762020692
389,Tudor Place,1644 31ST STREET NW,-77.06298578,38.9114871,297689,POINT(-77.06298578 38.9114871),87,C & O Canal & Wisconsin Ave NW,42.0,23,38.90375,-77.06269,active,POINT(-77.06269 38.90375),True,0.5349336273948277
390,U.S. Capitol Visitor Center,,-77.009036,38.88979448,294394,POINT(-77.009036 38.88979448),251,Constitution Ave & 2nd St NW/DOL,42.0,27,38.892275,-77.013917,active,POINT(-77.013917 38.892275),True,0.3135565093451821
391,U.S. Capitol Visitor Center,,-77.009036,38.88979448,294394,POINT(-77.009036 38.88979448),252,Washington & Independence Ave SW/HHS,42.0,31,38.886978000000006,-77.013769,active,POINT(-77.013769 38.886978),True,0.3204759590033852
392,U.S. Capitol Visitor Center,,-77.009036,38.88979448,294394,POINT(-77.009036 38.88979448),439,1st & D St SE,42.0,19,38.884916,-77.005965,active,POINT(-77.005965 38.884916),True,0.37544032029788815
393,U.S. Capitol Visitor Center,,-77.009036,38.88979448,294394,POINT(-77.009036 38.88979448),247,3rd St & Pennsylvania Ave SE,42.0,15,38.887378000000005,-77.00195500000001,active,POINT(-77.001955 38.887378),True,0.4158992980312815
394,U.S. Capitol Visitor Center,,-77.009036,38.88979448,294394,POINT(-77.009036 38.88979448),408,4th St & Madison Dr NW,42.0,31,38.890493,-77.017253,active,POINT(-77.017253 38.890493),True,0.4446244635980165
395,U.S. Daughters of 1812 Library and Museum,1463 RHODE ISLAND AVENUE NW,-77.03415685,38.90835625,240224,POINT(-77.03415685 38.90835625),25,14th & Rhode Island Ave NW,42.0,23,38.9086,-77.0323,active,POINT(-77.0323 38.9086),True,0.10126589770159886
396,U.S. Daughters of 1812 Library and Museum,1463 RHODE ISLAND AVENUE NW,-77.03415685,38.90835625,240224,POINT(-77.03415685 38.90835625),23,15th & P St NW,42.0,19,38.90985,-77.034438,active,POINT(-77.034438 38.90985),True,0.10433168317970244
397,U.S. Daughters of 1812 Library and Museum,1463 RHODE ISLAND AVENUE NW,-77.03415685,38.90835625,240224,POINT(-77.03415685 38.90835625),137,Thomas Circle,42.0,33,38.9059,-77.0325,active,POINT(-77.0325 38.9059),True,0.19171101173406266
398,U.S. Daughters of 1812 Library and Museum,1463 RHODE ISLAND AVENUE NW,-77.03415685,38.90835625,240224,POINT(-77.03415685 38.90835625),483,15th & M St NW,42.0,19,38.905424,-77.034674,active,POINT(-77.034674 38.905424),True,0.2045420676859552
399,U.S. Daughters of 1812 Library and Museum,1463 RHODE ISLAND AVENUE NW,-77.03415685,38.90835625,240224,POINT(-77.03415685 38.90835625),229,17th St & Massachusetts Ave NW,42.0,19,38.908142,-77.038359,active,POINT(-77.038359 38.908142),True,0.22646247081297524
400,United States Botanic Garden,100 MARYLAND AVENUE SW,-77.01290115,38.888248100000006,297683,POINT(-77.01290115 38.8882481),252,Washington & Independence Ave SW/HHS,42.0,31,38.886978000000006,-77.013769,active,POINT(-77.013769 38.886978),True,0.09941680719621283
401,United States Botanic Garden,100 MARYLAND AVENUE SW,-77.01290115,38.888248100000006,297683,POINT(-77.01290115 38.8882481),408,4th St & Madison Dr NW,42.0,31,38.890493,-77.017253,active,POINT(-77.017253 38.890493),True,0.28083287867829104
402,United States Botanic Garden,100 MARYLAND AVENUE SW,-77.01290115,38.888248100000006,297683,POINT(-77.01290115 38.8882481),251,Constitution Ave & 2nd St NW/DOL,42.0,27,38.892275,-77.013917,active,POINT(-77.013917 38.892275),True,0.28360569974972
403,United States Botanic Garden,100 MARYLAND AVENUE SW,-77.01290115,38.888248100000006,297683,POINT(-77.01290115 38.8882481),142,4th & C St SW,42.0,39,38.88637194054526,-77.01770067214966,active,POINT(-77.0177006721497 38.8863719405453),True,0.28890737750938733
404,United States Botanic Garden,100 MARYLAND AVENUE SW,-77.01290115,38.888248100000006,297683,POINT(-77.01290115 38.8882481),143,4th & E St SW,42.0,19,38.88412,-77.017445,active,POINT(-77.017445 38.88412),True,0.37567749061729744
405,United States Holocaust Memorial Museum,100 RAOUL WALLENBERG PLACE SW,-77.03268624,38.88668129,293186,POINT(-77.03268624 38.88668129),168,Jefferson Dr & 14th St SW,42.0,23,38.888553,-77.03242900000001,active,POINT(-77.032429 38.888553),True,0.13008856266202073
406,United States Holocaust Memorial Museum,100 RAOUL WALLENBERG PLACE SW,-77.03268624,38.88668129,293186,POINT(-77.03268624 38.88668129),71,USDA / 12th & C St SW,42.0,39,38.886276945065106,-77.02824175357819,active,POINT(-77.0282417535782 38.8862769450651),True,0.24071071686320125
407,United States Holocaust Memorial Museum,100 RAOUL WALLENBERG PLACE SW,-77.03268624,38.88668129,293186,POINT(-77.03268624 38.88668129),169,Smithsonian-National Mall / Jefferson Dr & 12th St SW,42.0,35,38.888767,-77.02858,active,POINT(-77.02858 38.888767),True,0.26375367023096563
408,United States Holocaust Memorial Museum,100 RAOUL WALLENBERG PLACE SW,-77.03268624,38.88668129,293186,POINT(-77.03268624 38.88668129),410,17th St & Independence Ave SW,42.0,19,38.888096999999995,-77.038325,active,POINT(-77.038325 38.888097),True,0.3187115954495395
409,United States Holocaust Memorial Museum,100 RAOUL WALLENBERG PLACE SW,-77.03268624,38.88668129,293186,POINT(-77.03268624 38.88668129),253,Independence Ave & L'Enfant Plaza SW/DOE,42.0,15,38.887312,-77.025762,active,POINT(-77.025762 38.887312),True,0.375016129211405
410,Whittemore House,1526 NEW HAMPSHIRE AVENUE NW,-77.04266708,38.91093038,225724,POINT(-77.04266708 38.91093038),556,18th & New Hampshire Ave NW,42.0,19,38.911268,-77.041829,active,POINT(-77.041829 38.911268),True,0.050749061505560925
411,Whittemore House,1526 NEW HAMPSHIRE AVENUE NW,-77.04266708,38.91093038,225724,POINT(-77.04266708 38.91093038),51,Massachusetts Ave & Dupont Circle NW,42.0,45,38.9101,-77.0444,active,POINT(-77.0444 38.9101),True,0.1094400706307838
412,Whittemore House,1526 NEW HAMPSHIRE AVENUE NW,-77.04266708,38.91093038,225724,POINT(-77.04266708 38.91093038),351,18th & R St NW,42.0,19,38.912648,-77.041834,active,POINT(-77.041834 38.912648),True,0.1268737440436907
413,Whittemore House,1526 NEW HAMPSHIRE AVENUE NW,-77.04266708,38.91093038,225724,POINT(-77.04266708 38.91093038),107,20th & O St NW / Dupont South,42.0,19,38.908905,-77.04478,active,POINT(-77.04478 38.908905),True,0.1802829844826225
414,Whittemore House,1526 NEW HAMPSHIRE AVENUE NW,-77.04266708,38.91093038,225724,POINT(-77.04266708 38.91093038),485,Connecticut Ave & R St NW,42.0,19,38.912644,-77.04564,active,POINT(-77.04564 38.912644),True,0.19895139401714726
415,Woodrow Wilson House,2340 S STREET NW,-77.05170373,38.91385408,218994,POINT(-77.05170373 38.91385408),485,Connecticut Ave & R St NW,42.0,19,38.912644,-77.04564,active,POINT(-77.04564 38.912644),True,0.33661779597873875
416,Woodrow Wilson House,2340 S STREET NW,-77.05170373,38.91385408,218994,POINT(-77.05170373 38.91385408),394,22nd & P ST NW,42.0,19,38.909394,-77.048728,active,POINT(-77.048728 38.909394),True,0.3472897307785693
417,Woodrow Wilson House,2340 S STREET NW,-77.05170373,38.91385408,218994,POINT(-77.05170373 38.91385408),46,20th St & Florida Ave NW,42.0,15,38.9154,-77.0446,active,POINT(-77.0446 38.9154),True,0.39664019084639773
418,Woodrow Wilson House,2340 S STREET NW,-77.05170373,38.91385408,218994,POINT(-77.05170373 38.91385408),51,Massachusetts Ave & Dupont Circle NW,42.0,45,38.9101,-77.0444,active,POINT(-77.0444 38.9101),True,0.470702255344439
419,Woodrow Wilson House,2340 S STREET NW,-77.05170373,38.91385408,218994,POINT(-77.05170373 38.91385408),198,24th & N St NW,42.0,15,38.9066,-77.05152,active,POINT(-77.05152 38.9066),True,0.5014137957906107
